{
  "type": "FeatureCollection",
  "name": "Don Matteo - Drehorte Staffel 1-15 (Gubbio, Spoleto, Tuscia)",
  "metadata": {
    "stand": "2026-08-12",
    "version": "4.0",
    "abdeckung": "Staffel 1-8 Gubbio, 9-15 Spoleto, 15 zusaetzlich Tuscia (Lazio)",
    "hinweis": "Koordinaten ueber Google Places; fuer eine oeffentliche Seite ggf. durch OpenStreetMap ersetzen.",
    "zusatzdateien": [
      "don-matteo-quellen.csv",
      "don-matteo-drehzeitraeume.csv",
      "don-matteo-abdeckung-je-staffel.csv"
    ]
  },
  "features": [
    {
      "type": "Feature",
      "geometry": {
        "type": "Point",
        "coordinates": [
          12.5782896,
          43.3525441
        ]
      },
      "properties": {
        "id": "G01",
        "name_de": "Kirche San Giovanni Battista",
        "name_it": "Chiesa di San Giovanni Battista",
        "typ": "Kirche",
        "ort": "Gubbio",
        "provinz": "PG",
        "adresse": "Piazza San Giovanni, 06024 Gubbio PG",
        "geo_genauigkeit": "exakt",
        "geo_quelle": "Q22",
        "google_place_id": "ChIJBdeDzqc5LBMRF4EwuOVC2ec",
        "beschreibung_ort": "Gotische Kollegiatkirche, erbaut um die Wende vom 13. zum 14. Jh., gotische Kalksteinfassade, daneben der wuchtige romanische Glockenturm. Steht vermutlich an der Stelle der urspruenglichen Kathedrale San Mariano.",
        "rolle_in_der_serie": "Aussenansicht von Don Matteos Pfarrkirche. Der Innenraum ist in Wirklichkeit viel groesser und sieht ganz anders aus als in der Serie - die Innenaufnahmen stammen aus San Marziale.",
        "staffeln": "1-8",
        "folgen_beispiele": "",
        "quellen": "Q01|Q02|Q03|Q06|Q07|Q11",
        "quellenkategorie": "offiziell + Fanseite + Presse",
        "verlaesslichkeit": "hoch",
        "foto_quelle": "https://www.budterence.tk/repDonMatteo6/021.htm",
        "budterence_kartennr": "21",
        "quelle_detailtiefe": "hoch (eigene Reportageseite mit 9 Standbildvergleichen)",
        "geprueft_am": "2026-08-11",
        "notizen": "Der bekannteste Drehort ueberhaupt; Wikipedia (EN) erwaehnt den dadurch entstandenen Besucherandrang."
      }
    },
    {
      "type": "Feature",
      "geometry": {
        "type": "Point",
        "coordinates": [
          12.5783199,
          43.3523696
        ]
      },
      "properties": {
        "id": "G02",
        "name_de": "Pfarrhaus / Canonica",
        "name_it": "Canonica di Don Matteo",
        "typ": "Gebaeude",
        "ort": "Gubbio",
        "provinz": "PG",
        "adresse": "Piazza San Giovanni 16, 06024 Gubbio PG",
        "geo_genauigkeit": "ungefaehr (Platzmittelpunkt)",
        "geo_quelle": "Q22",
        "google_place_id": "",
        "beschreibung_ort": "Wohnhaus direkt neben der Kirche San Giovanni, an der Westseite der Piazza.",
        "rolle_in_der_serie": "Aussenansicht des Pfarrhauses von Don Matteo, Natalina und Pippo. Innenraeume komplett im Studio.",
        "staffeln": "1-8",
        "folgen_beispiele": "",
        "quellen": "Q06|Q02",
        "quellenkategorie": "Fanseite + offiziell",
        "verlaesslichkeit": "hoch",
        "foto_quelle": "https://www.budterence.tk/repDonMatteo6/021.htm",
        "budterence_kartennr": "21",
        "quelle_detailtiefe": "",
        "geprueft_am": "2026-08-11",
        "notizen": "Hausnummer 16 stammt aus der Vor-Ort-Recherche von Q06; exakte Koordinate der Tuer waere vor Ort zu pruefen."
      }
    },
    {
      "type": "Feature",
      "geometry": {
        "type": "Point",
        "coordinates": [
          12.5783199,
          43.3523696
        ]
      },
      "properties": {
        "id": "G03",
        "name_de": "Piazza San Giovanni",
        "name_it": "Piazza San Giovanni",
        "typ": "Platz",
        "ort": "Gubbio",
        "provinz": "PG",
        "adresse": "Piazza San Giovanni, 06024 Gubbio PG",
        "geo_genauigkeit": "exakt",
        "geo_quelle": "Q22",
        "google_place_id": "ChIJ2S6By6c5LBMRvgb8s8BCKkg",
        "beschreibung_ort": "Platz im aeltesten Kern des mittelalterlichen Gubbio (10.-12. Jh.) zwischen Torrente Camignano und der umbrischen Stadtmauer. Baumreihe, Baenke, an der Westseite ein schwarzes Eisengelaender zu den Gassen Richtung Piazza Quaranta Martiri.",
        "rolle_in_der_serie": "Platz vor Don Matteos Kirche und Pfarrhaus (links die Kirche, direkt daneben die Canonica). Ausgangspunkt vieler Szenen - z.B. verabschiedet sich Miriam hier von Don Matteo und Suor Maria, bevor sie in der Via Cristini den Dealer trifft.",
        "staffeln": "1-8",
        "folgen_beispiele": "Bravi ragazzi (St. 6)",
        "quellen": "Q06",
        "quellenkategorie": "Fanseite",
        "verlaesslichkeit": "hoch",
        "foto_quelle": "https://www.budterence.tk/repDonMatteo6/021.htm",
        "budterence_kartennr": "21",
        "quelle_detailtiefe": "",
        "geprueft_am": "2026-08-11",
        "notizen": "Eine Aufnahme zeigt den Platz von oben aus einem Fenster des Palazzo Pretorio - aus der Schlusssequenz von Staffel 6."
      }
    },
    {
      "type": "Feature",
      "geometry": {
        "type": "Point",
        "coordinates": [
          12.5835414,
          43.3508481
        ]
      },
      "properties": {
        "id": "G04",
        "name_de": "Kirche San Marziale",
        "name_it": "Chiesa di San Marziale",
        "typ": "Kirche",
        "ort": "Gubbio",
        "provinz": "PG",
        "adresse": "Largo San Marziale 1, 06024 Gubbio PG",
        "geo_genauigkeit": "exakt",
        "geo_quelle": "Q22",
        "google_place_id": "ChIJYZ-PuKU5LBMRip7fk69dOKc",
        "beschreibung_ort": "Kleine romanische Kirche des 12. Jh. mit angeschlossenem Kloster, nahe Porta Romana und der Seilbahn zum Monte Ingino; zweischiffig mit schweren Pfeilern, Chorgestuehl gegenueber dem Altar.",
        "rolle_in_der_serie": "Liefert saemtliche Innenaufnahmen von Don Matteos Kirche. Besonders praesent in der letzten Folge der 6. Staffel, in der Don Matteo ueber den Tod von Giorgio und das scheinbare Scheitern seines Projekts mit den Ex-Haeftlingen nachdenkt.",
        "staffeln": "1-8",
        "folgen_beispiele": "Una dura prova per Don Matteo (St. 6)",
        "quellen": "Q03|Q06|Q07|Q11",
        "quellenkategorie": "offiziell + Fanseite + Presse",
        "verlaesslichkeit": "hoch",
        "foto_quelle": "https://www.budterence.tk/repDonMatteo6/016.htm",
        "budterence_kartennr": "16",
        "quelle_detailtiefe": "hoch",
        "geprueft_am": "2026-08-11",
        "notizen": "Die Reportage vermutet, die kleine Kirche sei gerade wegen ihrer geringen Groesse gewaehlt worden - praktischer fuer den Dreh. Das Kloster war frueher benediktinisch, heute Karmel. Wenige Meter entfernt die Porta Vehia (4.-3. Jh. v. Chr.), Rest der umbrischen Stadtmauer."
      }
    },
    {
      "type": "Feature",
      "geometry": {
        "type": "Point",
        "coordinates": [
          12.5788666,
          43.3534175
        ]
      },
      "properties": {
        "id": "G05",
        "name_de": "Piazza Grande",
        "name_it": "Piazza Grande",
        "typ": "Platz",
        "ort": "Gubbio",
        "provinz": "PG",
        "adresse": "Piazza Grande, 06024 Gubbio PG",
        "geo_genauigkeit": "exakt",
        "geo_quelle": "Q22",
        "google_place_id": "ChIJLXRRfKg5LBMRJZn5aBuzemg",
        "beschreibung_ort": "Auf vier grossen Boegen aufgestaendelter 'Haengeplatz' aus dem 14. Jh. zwischen Palazzo dei Consoli und Palazzo Pretorio, mit Panoramaterrasse ueber das Umland.",
        "rolle_in_der_serie": "Mit Abstand die am haeufigsten genutzte Location der Serie. Nicht nur Schachpartien Don Matteo/Cecchini und Kaserne, sondern auch die 'zufaelligen' Begegnungen, bei denen Cecchini Don Matteo ueber die Ermittlungen informiert, oder Patrizia Cecchini den Capitano um Nachhilfe in Naturwissenschaften bittet. Dazu die Carabinieri-Zeremonie in der Auftaktfolge und Eugenio Saccos Hetzrede gegen den Wolf.",
        "staffeln": "1-8",
        "folgen_beispiele": "Bentornato Don Matteo (Zeremonie, Cecchini schleicht sich weg); Francesca e il lupo (Comizio); Una dura prova per Don Matteo (St. 6)",
        "quellen": "Q02|Q03|Q06|Q07|Q08",
        "quellenkategorie": "offiziell + Fanseite + Presse",
        "verlaesslichkeit": "hoch",
        "foto_quelle": "https://www.budterence.tk/repDonMatteo6/014.htm",
        "budterence_kartennr": "14",
        "quelle_detailtiefe": "hoch",
        "geprueft_am": "2026-08-11",
        "notizen": "Vor dem Caffe Ducale steht bis heute ein Tischchen mit Erinnerungsstuecken an die Schachszenen (Q13)."
      }
    },
    {
      "type": "Feature",
      "geometry": {
        "type": "Point",
        "coordinates": [
          12.5791325,
          43.3530012
        ]
      },
      "properties": {
        "id": "G06",
        "name_de": "Palazzo Pretorio",
        "name_it": "Palazzo Pretorio (Palazzo del Podesta)",
        "typ": "Palast",
        "ort": "Gubbio",
        "provinz": "PG",
        "adresse": "Piazza Grande 9, 06024 Gubbio PG",
        "geo_genauigkeit": "exakt",
        "geo_quelle": "Q22",
        "google_place_id": "ChIJWTbvAwA5LBMRA3LZhuJkAoY",
        "beschreibung_ort": "Unvollendeter gotischer Bau von 1349 an der Ostseite der Piazza Grande, urspruenglich drei uebereinanderliegende Saele auf je einem Mittelpfeiler; heute Rathaus.",
        "rolle_in_der_serie": "Carabinieri-Kaserne. Genutzt fuer die Aussenszenen; die Belobigungszeremonie im Serienfinale von Staffel 6 wurde im Saal im Obergeschoss gedreht (eigentlich fuer die Piazza geplant, wegen Regen verlegt). Im Erdgeschoss lagen waehrend der Dreharbeiten Garderoben, Kostuem- und Requisitenlager.",
        "staffeln": "1-8",
        "folgen_beispiele": "Una dura prova per Don Matteo (St. 6, Schlussszene)",
        "quellen": "Q03|Q06|Q11|Q20",
        "quellenkategorie": "offiziell + Fanseite + Blog",
        "verlaesslichkeit": "hoch (mit Widerspruch)",
        "foto_quelle": "https://www.budterence.tk/repDonMatteo6/013.htm",
        "budterence_kartennr": "13",
        "quelle_detailtiefe": "",
        "geprueft_am": "2026-08-11",
        "notizen": "WIDERSPRUCH: Q02 und Q08 verorten die Kaserne beim Palazzo dei Consoli. Q03 schreibt, der Pretorio liefere die INNENaufnahmen - Q06 belegt dagegen, dass die Kaserneninnenraeume im Studio in Rom entstanden."
      }
    },
    {
      "type": "Feature",
      "geometry": {
        "type": "Point",
        "coordinates": [
          12.5784441,
          43.3533703
        ]
      },
      "properties": {
        "id": "G07",
        "name_de": "Palazzo dei Consoli",
        "name_it": "Palazzo dei Consoli",
        "typ": "Palast",
        "ort": "Gubbio",
        "provinz": "PG",
        "adresse": "Piazza Grande, 06024 Gubbio PG",
        "geo_genauigkeit": "exakt",
        "geo_quelle": "Q22",
        "google_place_id": "ChIJ6ceRfag5LBMRt1GVUPESV3Y",
        "beschreibung_ort": "1332-1349 erbaut, Angelo da Orvieto zugeschrieben, mit Faecherstiege und gotischem Portal; heute Museo Civico und Pinacoteca, beherbergt die Iguvinischen Tafeln.",
        "rolle_in_der_serie": "Bis einschliesslich Staffel 5 das Rathaus (Municipio) - Amtssitz von Buergermeisterin Laura. Ab Staffel 6 ohne feste Rolle, nur noch Hintergrund der Piazza-Szenen.",
        "staffeln": "1-5 (als Rathaus), 6-8 (Hintergrund)",
        "folgen_beispiele": "",
        "quellen": "Q06|Q02|Q08",
        "quellenkategorie": "Fanseite + offiziell + Presse",
        "verlaesslichkeit": "hoch",
        "foto_quelle": "https://www.budterence.tk/repDonMatteo6/012.htm",
        "budterence_kartennr": "12",
        "quelle_detailtiefe": "",
        "geprueft_am": "2026-08-11",
        "notizen": "Haeufige Verwechslung mit der Kaserne - siehe Notiz bei G06."
      }
    },
    {
      "type": "Feature",
      "geometry": {
        "type": "Point",
        "coordinates": [
          12.5789067,
          43.3533756
        ]
      },
      "properties": {
        "id": "G08",
        "name_de": "Bar / Hotel Ducale (Caffe Ducale, Relais Ducale)",
        "name_it": "Bar - Hotel Ducale",
        "typ": "Bar / Hotel",
        "ort": "Gubbio",
        "provinz": "PG",
        "adresse": "Piazza Grande 5 / Via Galeotti 19, 06024 Gubbio PG",
        "geo_genauigkeit": "exakt",
        "geo_quelle": "Q22",
        "google_place_id": "ChIJu0aeaag5LBMRV28uErEjivE",
        "beschreibung_ort": "Bar an der Nordseite der Piazza Grande, in den oberen Geschossen das Hotel Relais Ducale.",
        "rolle_in_der_serie": "Spielt sich selbst: Fruehstuecksbar von Cecchini und Tommasi; Arbeitsplatz der in Tommasi verliebten Bardame; Hotel, in dem Amanda nach der Trennung wohnt bzw. die Models vor der Modenschau untergebracht sind. Diente der Crew zugleich als Hauptquartier in den Drehpausen.",
        "staffeln": "1-8",
        "folgen_beispiele": "Morte di un cantastorie; Crisi sentimentale; Un tocco di fard (alle St. 6)",
        "quellen": "Q06|Q11|Q08|Q13",
        "quellenkategorie": "Fanseite + Reiseportal + Presse",
        "verlaesslichkeit": "hoch",
        "foto_quelle": "https://www.budterence.tk/repDonMatteo6/011.htm",
        "budterence_kartennr": "11",
        "quelle_detailtiefe": "",
        "geprueft_am": "2026-08-11",
        "notizen": "Im Inneren haengen Standfotos mit Widmungen und Autogrammen der Darsteller; ausgestellt sind Requisiten und ein Fahrrad."
      }
    },
    {
      "type": "Feature",
      "geometry": {
        "type": "Point",
        "coordinates": [
          12.5776575,
          43.3550788
        ]
      },
      "properties": {
        "id": "G09",
        "name_de": "Parco Ranghiasci-Brancaleoni",
        "name_it": "Parco Ranghiasci",
        "typ": "Park",
        "ort": "Gubbio",
        "provinz": "PG",
        "adresse": "Via Cattedrale, 06024 Gubbio PG",
        "geo_genauigkeit": "exakt",
        "geo_quelle": "Q22",
        "google_place_id": "ChIJ79H04gg5LBMRTnmkFDWiQt4",
        "beschreibung_ort": "Englischer Landschaftsgarten, ab 1831 von Marchese Francesco Ranghiasci Brancaleoni angelegt, laengs an der Stadtmauer ueber dem Torrente Camignano; Tempietto, Villino, mittelalterlicher Turm, Kastanien und Linden.",
        "rolle_in_der_serie": "Jogging-Strecke: Capitano Tommasi zwingt Cecchini mitzulaufen. Im Hintergrund beider Einstellungen ist der Palazzo dei Consoli zu sehen.",
        "staffeln": "v.a. 6-8",
        "folgen_beispiele": "Bentornato Don Matteo; Morte di un cantastorie (beide St. 6)",
        "quellen": "Q03|Q06|Q07|Q10",
        "quellenkategorie": "offiziell + Fanseite + Presse",
        "verlaesslichkeit": "hoch",
        "foto_quelle": "https://www.budterence.tk/repDonMatteo6/001.htm",
        "budterence_kartennr": "1",
        "quelle_detailtiefe": "",
        "geprueft_am": "2026-08-11",
        "notizen": "Nordwestlich der Altstadt, klettert einige Dutzend Meter den Monte Ingino hinauf. Haupteingang laut Reportage in der Via Gabrielli. Im oberen Bereich ein Torrione und Reste der Stadtmauer."
      }
    },
    {
      "type": "Feature",
      "geometry": {
        "type": "Point",
        "coordinates": [
          12.5797244,
          43.3539414
        ]
      },
      "properties": {
        "id": "G10",
        "name_de": "Palazzo Ducale - Voltone (Durchgang)",
        "name_it": "Voltone del Palazzo Ducale",
        "typ": "Palast / Durchgang",
        "ort": "Gubbio",
        "provinz": "PG",
        "adresse": "Via Federico da Montefeltro / Via Cattedrale, 06024 Gubbio PG",
        "geo_genauigkeit": "ungefaehr (Palast, nicht Durchgang)",
        "geo_quelle": "Q22",
        "google_place_id": "ChIJn-XJoag5LBMRJfXeyQKg_S4",
        "beschreibung_ort": "Gewoelbter Durchgang am Palazzo Ducale der Montefeltro (bis 1480 erbaut), gegenueber dem Dom.",
        "rolle_in_der_serie": "Gefaengnis der Serie - neben dem Eingang haengt im Film ein Schild 'Casa circondariale'. In Wirklichkeit der Voltone, der zugleich als Zugang zu den Haengegaerten des Palazzo Ducale dient.",
        "staffeln": "v.a. 6",
        "folgen_beispiele": "",
        "quellen": "Q06",
        "quellenkategorie": "Fanseite",
        "verlaesslichkeit": "mittel-hoch",
        "foto_quelle": "https://www.budterence.tk/repDonMatteo6/002.htm",
        "budterence_kartennr": "2",
        "quelle_detailtiefe": "hoch",
        "geprueft_am": "2026-08-11",
        "notizen": "Der ganze Komplex liegt oberhalb der Piazza Grande; von den Haengegaerten hat man einen noch hoeheren Rundblick ueber Gubbio als von der Piazza. Die Reportage zeigt auch die schmale Gasse vom Voltone zum Palasteingang und die Strasse, die vom Voltone Richtung Via Galeotti hinabfuehrt."
      }
    },
    {
      "type": "Feature",
      "geometry": {
        "type": "Point",
        "coordinates": [
          12.5774551,
          43.3538436
        ]
      },
      "properties": {
        "id": "G11",
        "name_de": "Via della Zecca",
        "name_it": "Via della Zecca",
        "typ": "Strasse",
        "ort": "Gubbio",
        "provinz": "PG",
        "adresse": "Via della Zecca, 06024 Gubbio PG",
        "geo_genauigkeit": "exakt (Strassenmitte)",
        "geo_quelle": "Q22",
        "google_place_id": "ChIJJSNvcqg5LBMRslICic6PddM",
        "beschreibung_ort": "Stark abfallende Gasse, parallel und auf halber Hoehe zwischen den bekannteren Via dei Consoli und Via Baldassini; im Hintergrund ist der Palazzo dei Consoli zu sehen.",
        "rolle_in_der_serie": "Standardeinstellung, mit der in mehreren Folgen Don Matteos Weg zum Gefaengnis eingeleitet wird.",
        "staffeln": "6",
        "folgen_beispiele": "",
        "quellen": "Q06",
        "quellenkategorie": "Fanseite",
        "verlaesslichkeit": "hoch",
        "foto_quelle": "https://www.budterence.tk/repDonMatteo6/009.htm",
        "budterence_kartennr": "9",
        "quelle_detailtiefe": "hoch",
        "geprueft_am": "2026-08-11",
        "notizen": "WICHTIG fuer die Karte: Die Via della Zecca liegt in Wirklichkeit gar nicht in der Naehe des Voltone (G10), der das Gefaengnis darstellt. Die Serie montiert hier zwei weit auseinanderliegende Orte zu einem Weg zusammen."
      }
    },
    {
      "type": "Feature",
      "geometry": {
        "type": "Point",
        "coordinates": [
          12.5780401,
          43.3533208
        ]
      },
      "properties": {
        "id": "G12",
        "name_de": "Via Baldassini 24 - Haus Cecchini",
        "name_it": "Abitazione del Maresciallo Cecchini",
        "typ": "Wohnhaus",
        "ort": "Gubbio",
        "provinz": "PG",
        "adresse": "Via Baldassini 24, 06024 Gubbio PG",
        "geo_genauigkeit": "ungefaehr (Strassenmitte, nicht Hausnummer)",
        "geo_quelle": "Q22",
        "google_place_id": "ChIJif3aeKg5LBMRUPD2jOm57Z8",
        "beschreibung_ort": "Mittelalterliche Gasse unterhalb der Piazza Grande, gut erhaltene Steinfassaden.",
        "rolle_in_der_serie": "Wohnhaus von Maresciallo Cecchini (nur Aussenansicht). In den ersten Folgen der Staffel nur seltene Einstellungen der beiden Fenster; richtig zu erkennen ist das Haus in der vorletzten Folge, wenn Tochter Patrizia mehrfach ein- und ausgeht, begleitet vom jungen Carabiniere Severino.",
        "staffeln": "1-8",
        "folgen_beispiele": "Profumo di caffe; Uno spirito inquieto; Bravi ragazzi (alle St. 6)",
        "quellen": "Q06|Q02",
        "quellenkategorie": "Fanseite + offiziell",
        "verlaesslichkeit": "hoch",
        "foto_quelle": "https://www.budterence.tk/repDonMatteo6/017.htm",
        "budterence_kartennr": "17",
        "quelle_detailtiefe": "hoch",
        "geprueft_am": "2026-08-11",
        "notizen": "Hausnummer aus der Vor-Ort-Recherche. Via Baldassini verlaeuft eben, parallel und eine Ebene unterhalb der Piazza Grande - von hier sieht man die Substruktionen von 1482, die steile Flanke des Palazzo Pretorio und den Campanone-Turm. In derselben Strasse liegt die Casa Baldassini, in der der Ueberlieferung nach 1084 der Stadtpatron Sant'Ubaldo geboren wurde."
      }
    },
    {
      "type": "Feature",
      "geometry": {
        "type": "Point",
        "coordinates": [
          12.5780401,
          43.3533208
        ]
      },
      "properties": {
        "id": "G13",
        "name_de": "Via Baldassini 35 - Wohnung Tommasi",
        "name_it": "Abitazione del Capitano Tommasi",
        "typ": "Wohnhaus",
        "ort": "Gubbio",
        "provinz": "PG",
        "adresse": "Via Baldassini 35, 06024 Gubbio PG",
        "geo_genauigkeit": "ungefaehr (Strassenmitte)",
        "geo_quelle": "Q22",
        "google_place_id": "",
        "beschreibung_ort": "Haus gegenueber der Wohnung Cecchinis; das Fenster liegt auf Hoehe der Hausnummer 35.",
        "rolle_in_der_serie": "Wohnung von Capitano Tommasi. Das Fenster liegt genau gegenueber dem von Cecchini. Tommasi findet die Wohnung nach langer Suche - Cecchini erfaehrt davon, als er waehrend einer Schachpartie mit Don Matteo aus dem Fenster schaut. Spaeter ruft Cecchini den Capitano vom Fenster aus, als der auf Anweisung seiner Mutter die Gardinen wechselt, und muss ihm schliesslich helfen, obwohl beide lieber das Fussball-Laenderspiel gesehen haetten.",
        "staffeln": "6-8",
        "folgen_beispiele": "Profumo di caffe (Einzug); Uno spirito inquieto (Gardinen) (beide St. 6)",
        "quellen": "Q06",
        "quellenkategorie": "Fanseite",
        "verlaesslichkeit": "hoch",
        "foto_quelle": "https://www.budterence.tk/repDonMatteo6/017.htm",
        "budterence_kartennr": "17",
        "quelle_detailtiefe": "hoch",
        "geprueft_am": "2026-08-11",
        "notizen": "Tommasi (Simone Montedoro) tritt ab Staffel 6 an die Stelle von Capitano Anceschi (Flavio Insinna, St. 1-5)."
      }
    },
    {
      "type": "Feature",
      "geometry": {
        "type": "Point",
        "coordinates": [
          12.5780401,
          43.3533208
        ]
      },
      "properties": {
        "id": "G14",
        "name_de": "Via Baldassini 34 - Geigenbauwerkstatt Ginolfi",
        "name_it": "Laboratorio liuteria Ginolfi",
        "typ": "Ladengeschaeft",
        "ort": "Gubbio",
        "provinz": "PG",
        "adresse": "Via Baldassini 34, 06024 Gubbio PG",
        "geo_genauigkeit": "ungefaehr (Strassenmitte)",
        "geo_quelle": "Q22",
        "google_place_id": "",
        "beschreibung_ort": "Ladenlokal in der Via Baldassini.",
        "rolle_in_der_serie": "Geigenbauwerkstatt, in der Alderigo Ginolfi ermordet wird.",
        "staffeln": "6",
        "folgen_beispiele": "Il tesoro di Orfeo (St. 6)",
        "quellen": "Q06",
        "quellenkategorie": "Fanseite",
        "verlaesslichkeit": "mittel-hoch",
        "foto_quelle": "https://www.budterence.tk/repDonMatteo6/018.htm",
        "budterence_kartennr": "18",
        "quelle_detailtiefe": "hoch",
        "geprueft_am": "2026-08-11",
        "notizen": "Das Ladenlokal wirkte 2008 ungenutzt bzw. unbewohnt. Liegt wenige Meter unterhalb des Endes der Via-Gattapone-Abfahrt (siehe G30)."
      }
    },
    {
      "type": "Feature",
      "geometry": {
        "type": "Point",
        "coordinates": [
          12.5770589,
          43.3543637
        ]
      },
      "properties": {
        "id": "G15",
        "name_de": "Via dei Consoli 13 - Schokoladenladen von Vanessa",
        "name_it": "Cioccolateria di Vanessa",
        "typ": "Ladengeschaeft",
        "ort": "Gubbio",
        "provinz": "PG",
        "adresse": "Via dei Consoli 13, 06024 Gubbio PG",
        "geo_genauigkeit": "ungefaehr (Strassenmitte)",
        "geo_quelle": "Q22",
        "google_place_id": "ChIJNxH6GKg5LBMRck_Ubu7n5io",
        "beschreibung_ort": "Hauptgeschaeftsstrasse der mittelalterlichen Oberstadt mit Handwerksbetrieben und Keramikladen.",
        "rolle_in_der_serie": "Schokoladengeschaeft von Vanessa an der Nordseite. Etwas weiter, ebenfalls an der Nordseite der Piazzetta, kommt es zur Schlaegerei zwischen Youssef und dem blonden Bruder von Angela.",
        "staffeln": "6",
        "folgen_beispiele": "Cioccolata (St. 6)",
        "quellen": "Q06",
        "quellenkategorie": "Fanseite",
        "verlaesslichkeit": "mittel-hoch",
        "foto_quelle": "https://www.budterence.tk/repDonMatteo6/007.htm",
        "budterence_kartennr": "7",
        "quelle_detailtiefe": "hoch",
        "geprueft_am": "2026-08-11",
        "notizen": "Die Kreuzung Via dei Consoli / Via Camignano bildet eine kleine Piazzetta - genau der Ausschnitt, den die Serie zeigt."
      }
    },
    {
      "type": "Feature",
      "geometry": {
        "type": "Point",
        "coordinates": [
          12.5770589,
          43.3543637
        ]
      },
      "properties": {
        "id": "G16",
        "name_de": "Via dei Consoli 16 - Bar Tabacchi Nello",
        "name_it": "Bar Tabacchi Nello",
        "typ": "Ladengeschaeft",
        "ort": "Gubbio",
        "provinz": "PG",
        "adresse": "Via dei Consoli 16, 06024 Gubbio PG",
        "geo_genauigkeit": "ungefaehr (Strassenmitte)",
        "geo_quelle": "Q22",
        "google_place_id": "",
        "beschreibung_ort": "Ladenlokal schraeg gegenueber der Cioccolateria.",
        "rolle_in_der_serie": "Bar/Tabakladen 'Nello' an der Suedseite der Piazzetta. Tommasi, Cecchini und Don Matteo kaufen hier jeder ein Lotterielos; auch eine Innenaufnahme des Lokals ist dokumentiert.",
        "staffeln": "6-7",
        "folgen_beispiele": "",
        "quellen": "Q06",
        "quellenkategorie": "Fanseite",
        "verlaesslichkeit": "mittel-hoch",
        "foto_quelle": "https://www.budterence.tk/repDonMatteo6/007.htm",
        "budterence_kartennr": "7",
        "quelle_detailtiefe": "hoch",
        "geprueft_am": "2026-08-11",
        "notizen": "Der Folgenbezug zu einem Ueberfall auf den Tabakladen der Familie Carrani in Staffel 7 stammt aus den Lux-Vide-Synopsen und ist NICHT mit diesem Gebaeude belegt."
      }
    },
    {
      "type": "Feature",
      "geometry": {
        "type": "Point",
        "coordinates": [
          12.5770589,
          43.3543637
        ]
      },
      "properties": {
        "id": "G17",
        "name_de": "Via dei Consoli 10 - Zeitungskiosk",
        "name_it": "Edicola",
        "typ": "Kiosk",
        "ort": "Gubbio",
        "provinz": "PG",
        "adresse": "Via dei Consoli 10, 06024 Gubbio PG",
        "geo_genauigkeit": "ungefaehr (Strassenmitte)",
        "geo_quelle": "Q22",
        "google_place_id": "",
        "beschreibung_ort": "Kiosk in der Via dei Consoli.",
        "rolle_in_der_serie": "Kiosk, an dem Natalina und Pippo die Zeitschrift 'Lusso' kaufen. Vorgeschichte: Die beiden finden direkt vor dem Pfarrhaus einen Umschlag mit 9.900 Euro - Geld, mit dem eine junge Nigerianerin aus der Prostitution freigekauft werden sollte. Ahnungslos beschliessen sie, alles auszugeben, und suchen in der Zeitschrift Anregungen fuer 'teure und nutzlose Ausgaben'.",
        "staffeln": "6",
        "folgen_beispiele": "Un sogno rubato (St. 6)",
        "quellen": "Q06",
        "quellenkategorie": "Fanseite",
        "verlaesslichkeit": "mittel-hoch",
        "foto_quelle": "https://www.budterence.tk/repDonMatteo6/006.htm",
        "budterence_kartennr": "6",
        "quelle_detailtiefe": "hoch",
        "geprueft_am": "2026-08-11",
        "notizen": "Der Kiosk liegt am Anfang der Via dei Consoli. Waehrend Natalina und Pippo sich naehern, ist im Hintergrund die Kirche San Domenico zu sehen (Piazza Giordano Bruno, ca. 43.35454 / 12.57519)."
      }
    },
    {
      "type": "Feature",
      "geometry": {
        "type": "Point",
        "coordinates": [
          12.5766119,
          43.35179
        ]
      },
      "properties": {
        "id": "G18",
        "name_de": "Piazza Quaranta Martiri",
        "name_it": "Piazza dei Quaranta Martiri",
        "typ": "Platz",
        "ort": "Gubbio",
        "provinz": "PG",
        "adresse": "Piazza dei Quaranta Martiri, 06024 Gubbio PG",
        "geo_genauigkeit": "exakt",
        "geo_quelle": "Q22",
        "google_place_id": "ChIJLQyi6Kc5LBMRoFkbAS95Xk0",
        "beschreibung_ort": "Urspruenglich mittelalterlicher Marktplatz, heute teils Parkplatz, teils Gruenanlage; benannt nach den 40 am 22.06.1944 erschossenen Buergern.",
        "rolle_in_der_serie": "Zahlreiche Einstellungen. Hier der Wochenmarkt von Gubbio - meist mit Natalina beim Einkaufen. Ausserdem die Actionszene, in der Tommasi und Cecchini am 'Pub delle Stelle' einen Dealer beim Verkauf an Fiorenzo entdecken; es folgt eine Verfolgungsjagd durch die Strassen Gubbios.",
        "staffeln": "6",
        "folgen_beispiele": "Bravi ragazzi (Dealer/Verfolgungsjagd, St. 6)",
        "quellen": "Q06|Q13",
        "quellenkategorie": "Fanseite + Blog",
        "verlaesslichkeit": "hoch",
        "foto_quelle": "https://www.budterence.tk/repDonMatteo6/023.htm",
        "budterence_kartennr": "23",
        "quelle_detailtiefe": "hoch",
        "geprueft_am": "2026-08-11",
        "notizen": "Verkehrsknoten und teils Parkplatz, teils Gruenanlage; bietet den weitesten Blick auf die am Berg klebende Oberstadt. 2023 Hauptflaeche des SpencerHill-Festivals mit ueber 20.000 Besuchern."
      }
    },
    {
      "type": "Feature",
      "geometry": {
        "type": "Point",
        "coordinates": [
          12.5774886,
          43.3521428
        ]
      },
      "properties": {
        "id": "G19",
        "name_de": "Logge dei Tiratori",
        "name_it": "Logge dei Tiratori della Lana",
        "typ": "Historisches Bauwerk",
        "ort": "Gubbio",
        "provinz": "PG",
        "adresse": "Piazza dei Quaranta Martiri 45, 06024 Gubbio PG",
        "geo_genauigkeit": "exakt",
        "geo_quelle": "Q22",
        "google_place_id": "ChIJ5c2mUQA5LBMRgPpTG7cmgEI",
        "beschreibung_ort": "Langer Saeulenportikus ueber der Kirche Santa Maria dei Laici; urspruenglich Sitz des 1326 gegruendeten Hospitals Santa Maria, spaeter Trockenplatz der Wolltuchmacher.",
        "rolle_in_der_serie": "Oberhalb des ehemaligen 'Spedal Grande' gelegen. Hier wurden die Modenschau und die Theaterauffuehrung der Pfarrjugend mit den ehemaligen Haeftlingen gedreht. Von unterhalb der Loggien hat man den weiten Blick zur Basilika Sant'Ubaldo auf dem Monte Ingino.",
        "staffeln": "6",
        "folgen_beispiele": "Un tocco di fard (Modenschau); Una dura prova per Don Matteo (Theater) (beide St. 6)",
        "quellen": "Q06",
        "quellenkategorie": "Fanseite",
        "verlaesslichkeit": "hoch",
        "foto_quelle": "https://www.budterence.tk/repDonMatteo6/024.htm",
        "budterence_kartennr": "24",
        "quelle_detailtiefe": "hoch",
        "geprueft_am": "2026-08-11",
        "notizen": "Der ex 'Spedal Grande' wurde im 14. Jh. von der Confraternita della Beata Vergine Maria erbaut und 1452 den Bianchi/Laici uebergeben; die Loggia darueber kam im 17. Jh. durch die Wollweberzunft als Trockenplatz hinzu."
      }
    },
    {
      "type": "Feature",
      "geometry": {
        "type": "Point",
        "coordinates": [
          12.5767859,
          43.3544288
        ]
      },
      "properties": {
        "id": "G21",
        "name_de": "Largo del Bargello 2 - Haus von Cecilia und Tante Teresa",
        "name_it": "Abitazione di Cecilia e zia Teresa",
        "typ": "Wohnhaus",
        "ort": "Gubbio",
        "provinz": "PG",
        "adresse": "Largo del Bargello 2, 06024 Gubbio PG (an der Fontana dei Matti)",
        "geo_genauigkeit": "ungefaehr (Brunnen als Anker)",
        "geo_quelle": "Q22",
        "google_place_id": "ChIJ3VORKEI5LBMRwMQUH1YeOMk",
        "beschreibung_ort": "Platz vor dem gotischen Palazzo del Bargello (um 1302, heute Armbrustmuseum) mit der Fontana dei Matti; wer sie dreimal umrundet, erhaelt die 'Patente di Matto'.",
        "rolle_in_der_serie": "Das Portal unter Nr. 2 dient als Wohnhaus von Cecilia und ihrer Tante Teresa - Nichte bzw. Ehefrau des ermordeten Hobby-Astronomen Prof. Albani.",
        "staffeln": "6",
        "folgen_beispiele": "Incontri ravvicinati (St. 6)",
        "quellen": "Q06",
        "quellenkategorie": "Fanseite",
        "verlaesslichkeit": "mittel-hoch",
        "foto_quelle": "https://www.budterence.tk/repDonMatteo6/008.htm",
        "budterence_kartennr": "8",
        "quelle_detailtiefe": "hoch",
        "geprueft_am": "2026-08-11",
        "notizen": "Der Platz oeffnet sich rechts der Via dei Consoli, auf halber Strecke zwischen der Kirche San Domenico und der Piazza Grande. Die Fontana dei Matti ist im Kern 16. Jh., 1862 erneuert."
      }
    },
    {
      "type": "Feature",
      "geometry": {
        "type": "Point",
        "coordinates": [
          12.5783853,
          43.3538607
        ]
      },
      "properties": {
        "id": "G22",
        "name_de": "Via Galeotti 50 - Wohnung der Verlobten des Sommeliers",
        "name_it": "Abitazione della fidanzata di Cassio Volterra",
        "typ": "Wohnhaus",
        "ort": "Gubbio",
        "provinz": "PG",
        "adresse": "Via Galeotti 50, 06024 Gubbio PG",
        "geo_genauigkeit": "ungefaehr (Strassenmitte)",
        "geo_quelle": "Q22",
        "google_place_id": "ChIJfbedYqg5LBMRJOfVIQrGu8M",
        "beschreibung_ort": "Treppengasse, die von der Piazza Grande zum Dom hinaufsteigt.",
        "rolle_in_der_serie": "Wohnung der Verlobten des ermordeten Sommeliers Cassio Volterra, gegen Ende der Via Galeotti. Don Matteo sucht sie fuer ein paar Fragen und trifft sie beim Verlassen des Hauses.",
        "staffeln": "6",
        "folgen_beispiele": "Una buona annata (St. 6)",
        "quellen": "Q06|Q02",
        "quellenkategorie": "Fanseite + offiziell",
        "verlaesslichkeit": "mittel-hoch",
        "foto_quelle": "https://www.budterence.tk/repDonMatteo6/004.htm",
        "budterence_kartennr": "4",
        "quelle_detailtiefe": "hoch",
        "geprueft_am": "2026-08-11",
        "notizen": "Nettes Wiedererkennungsmerkmal fuer Besucher: Am Portal haengt (auch real) ein Schildchen mit der Aufschrift 'C.A. Rossi'."
      }
    },
    {
      "type": "Feature",
      "geometry": {
        "type": "Point",
        "coordinates": [
          12.5788293,
          43.3510743
        ]
      },
      "properties": {
        "id": "G24",
        "name_de": "Via Cairoli 11 - Post",
        "name_it": "Poste e Telecomunicazioni",
        "typ": "Oeffentliches Gebaeude",
        "ort": "Gubbio",
        "provinz": "PG",
        "adresse": "Via Cairoli 11, 06024 Gubbio PG",
        "geo_genauigkeit": "exakt (Postamt)",
        "geo_quelle": "Q22",
        "google_place_id": "ChIJ8W2qVaY5LBMRNLb14oQfUwQ",
        "beschreibung_ort": "Das reale Postamt von Gubbio unter Via Cairoli 11.",
        "rolle_in_der_serie": "Suor Maria verlaesst mit Geld das Postamt, als Don Matteo mit dem Fahrrad ankommt und sie voll erwischt. Sie haelt ihn fuer einen Handtaschendieb, laesst Tasche und Geld fallen und flieht. Spaeter rechtfertigt sich Don Matteo in der Kaserne mit dem Hinweis, sein Fahrrad sei ein Oldtimer - schoen, aber die Bremsen gingen staendig kaputt.",
        "staffeln": "6",
        "folgen_beispiele": "",
        "quellen": "Q06",
        "quellenkategorie": "Fanseite",
        "verlaesslichkeit": "mittel-hoch",
        "foto_quelle": "https://www.budterence.tk/repDonMatteo6/026.htm",
        "budterence_kartennr": "26",
        "quelle_detailtiefe": "hoch",
        "geprueft_am": "2026-08-11",
        "notizen": ""
      }
    },
    {
      "type": "Feature",
      "geometry": {
        "type": "Point",
        "coordinates": [
          12.5759318,
          43.3549918
        ]
      },
      "properties": {
        "id": "G25",
        "name_de": "Via Camignano 30 - Obdachlosenunterkunft und Suppenkueche",
        "name_it": "Dormitorio e mensa pubblici",
        "typ": "Gebaeude",
        "ort": "Gubbio",
        "provinz": "PG",
        "adresse": "Via del Camignano 30, 06024 Gubbio PG",
        "geo_genauigkeit": "ungefaehr (Strassenmitte)",
        "geo_quelle": "Q22",
        "google_place_id": "ChIJGdhvI6g5LBMRI7ex5_FqzSA",
        "beschreibung_ort": "Strasse entlang des Torrente Camignano im Quartier San Martino.",
        "rolle_in_der_serie": "Oeffentliche Unterkunft mit Essensausgabe, in der Don Matteo nach Beatriz sucht - der jungen Brasilianerin, die er aus der Prostitution holen will.",
        "staffeln": "6",
        "folgen_beispiele": "Bentornato Don Matteo (St. 6)",
        "quellen": "Q06",
        "quellenkategorie": "Fanseite",
        "verlaesslichkeit": "mittel-hoch",
        "foto_quelle": "https://www.budterence.tk/repDonMatteo6/005.htm",
        "budterence_kartennr": "5",
        "quelle_detailtiefe": "hoch",
        "geprueft_am": "2026-08-11",
        "notizen": "Die Via Camignano beginnt nahe dem Eingang zum Parco Ranghiasci und verlaeuft dann am Torrente Camignano entlang; die Mauer auf der rechten Seite ist die Uferbefestigung."
      }
    },
    {
      "type": "Feature",
      "geometry": {
        "type": "Point",
        "coordinates": [
          12.5761231,
          43.3518308
        ]
      },
      "properties": {
        "id": "G26",
        "name_de": "Largo San Francesco 7 - Krankenhaus",
        "name_it": "Ospedale cittadino",
        "typ": "Gebaeude",
        "ort": "Gubbio",
        "provinz": "PG",
        "adresse": "Largo San Francesco 7, 06024 Gubbio PG",
        "geo_genauigkeit": "ungefaehr (Strassenmitte)",
        "geo_quelle": "Q22",
        "google_place_id": "ChIJyZclhqc5LBMRzynRVDVQrRE",
        "beschreibung_ort": "Platz an der Kirche San Francesco, unterhalb der Piazza Quaranta Martiri.",
        "rolle_in_der_serie": "Wann immer Opfer in einer Folge nur verletzt oder bewusstlos sind, wird das Krankenhaus von Gubbio gezeigt - zumindest fuer die Aussenaufnahmen.",
        "staffeln": "6",
        "folgen_beispiele": "",
        "quellen": "Q06",
        "quellenkategorie": "Fanseite",
        "verlaesslichkeit": "mittel-hoch",
        "foto_quelle": "https://www.budterence.tk/repDonMatteo6/025.htm",
        "budterence_kartennr": "25",
        "quelle_detailtiefe": "hoch",
        "geprueft_am": "2026-08-11",
        "notizen": "ACHTUNG fuer Besucher: Schon 2008 vermerkte die Reportage, das Krankenhaus sei verlegt bzw. aufgeloest worden; das Gebaeude in Largo San Francesco stehe dauerhaft leer. Largo San Francesco bildet praktisch einen einzigen Platz mit der Piazza Quaranta Martiri. Fuer Staffel 7 nennt Q12 zusaetzlich Innenaufnahmen im Krankenhaus Santa Maria della Misericordia in Perugia (U06)."
      }
    },
    {
      "type": "Feature",
      "geometry": {
        "type": "Point",
        "coordinates": [
          12.5776197,
          43.3525229
        ]
      },
      "properties": {
        "id": "G27",
        "name_de": "Via Battilana 20 - Wohnung von Natascia",
        "name_it": "Abitazione di Natascia",
        "typ": "Wohnhaus",
        "ort": "Gubbio",
        "provinz": "PG",
        "adresse": "Via dei Battilana 20, 06024 Gubbio PG",
        "geo_genauigkeit": "ungefaehr (Strassenmitte)",
        "geo_quelle": "Q22",
        "google_place_id": "ChIJg9MyxKc5LBMRkKHM2RxjKAw",
        "beschreibung_ort": "Gasse zwischen Piazza San Giovanni und Via dei Consoli.",
        "rolle_in_der_serie": "Wohnung von Natascia, Angestellte im Supermarkt. Don Matteo besucht sie, um ueber die Nacht zu sprechen, in der Renato, der 'cantastorie' des Supermarkts, getoetet wurde.",
        "staffeln": "6",
        "folgen_beispiele": "Morte di un cantastorie (St. 6)",
        "quellen": "Q06",
        "quellenkategorie": "Fanseite",
        "verlaesslichkeit": "mittel-hoch",
        "foto_quelle": "https://www.budterence.tk/repDonMatteo6/022.htm",
        "budterence_kartennr": "22",
        "quelle_detailtiefe": "hoch",
        "geprueft_am": "2026-08-11",
        "notizen": "Die Via dei Battilana verbindet die Piazza Quaranta Martiri mit der Piazza San Giovanni; das Haus liegt nur wenige Meter von der Piazza San Giovanni entfernt."
      }
    },
    {
      "type": "Feature",
      "geometry": {
        "type": "Point",
        "coordinates": [
          12.5775872,
          43.3528755
        ]
      },
      "properties": {
        "id": "G28",
        "name_de": "Via Piccardi",
        "name_it": "Via Piccardi",
        "typ": "Strasse",
        "ort": "Gubbio",
        "provinz": "PG",
        "adresse": "Via A. Piccardi, 06024 Gubbio PG",
        "geo_genauigkeit": "exakt (Strassenmitte)",
        "geo_quelle": "Q22",
        "google_place_id": "ChIJOb9-26c5LBMRgnO474TnHYc",
        "beschreibung_ort": "Gasse in der Unterstadt.",
        "rolle_in_der_serie": "Eine der Strassen, durch die Don Matteo mit dem Fahrrad faehrt.",
        "staffeln": "1-8",
        "folgen_beispiele": "",
        "quellen": "Q02",
        "quellenkategorie": "offiziell (Region Umbrien)",
        "verlaesslichkeit": "hoch",
        "foto_quelle": "",
        "budterence_kartennr": "",
        "quelle_detailtiefe": "",
        "geprueft_am": "2026-08-11",
        "notizen": ""
      }
    },
    {
      "type": "Feature",
      "geometry": {
        "type": "Point",
        "coordinates": [
          12.5819057,
          43.3512996
        ]
      },
      "properties": {
        "id": "G29",
        "name_de": "Via Savelli della Porta",
        "name_it": "Via Savelli della Porta",
        "typ": "Strasse",
        "ort": "Gubbio",
        "provinz": "PG",
        "adresse": "Via Savelli della Porta, 06024 Gubbio PG",
        "geo_genauigkeit": "exakt (Strassenmitte)",
        "geo_quelle": "Q22",
        "google_place_id": "ChIJa8Nz36U5LBMRYroGL7G-J_8",
        "beschreibung_ort": "Strasse Richtung Porta Romana und San Marziale.",
        "rolle_in_der_serie": "Fahrradstrecke Don Matteos.",
        "staffeln": "1-8",
        "folgen_beispiele": "",
        "quellen": "Q02",
        "quellenkategorie": "offiziell (Region Umbrien)",
        "verlaesslichkeit": "hoch",
        "foto_quelle": "",
        "budterence_kartennr": "",
        "quelle_detailtiefe": "",
        "geprueft_am": "2026-08-11",
        "notizen": ""
      }
    },
    {
      "type": "Feature",
      "geometry": {
        "type": "Point",
        "coordinates": [
          12.5780704,
          43.3534755
        ]
      },
      "properties": {
        "id": "G30",
        "name_de": "Via Gattapone",
        "name_it": "Via Gattapone",
        "typ": "Strasse",
        "ort": "Gubbio",
        "provinz": "PG",
        "adresse": "Via Gattapone, 06024 Gubbio PG",
        "geo_genauigkeit": "exakt (Strassenmitte)",
        "geo_quelle": "Q22",
        "google_place_id": "ChIJv2kWeag5LBMRN7qwiA6M3d0",
        "beschreibung_ort": "Charakteristische Gasse, die von der Via dei Consoli in drei Kehren zur Via Baldassini hinabfuehrt und dabei den Palazzo dei Consoli flankiert.",
        "rolle_in_der_serie": "Zweiter Jogging-Schauplatz: Cecchini ueberredet Capitano Tommasi zum Laufen ausgerechnet in dieser Ecke Gubbios, weil er weiss, dass sie dort Dr. Chiara Brini treffen - die Vertretung des Gerichtsmediziners, die er fuer 'die Richtige' fuer den Capitano haelt. Der Plan geht auf.",
        "staffeln": "6",
        "folgen_beispiele": "Il tesoro di Orfeo (St. 6)",
        "quellen": "Q06",
        "quellenkategorie": "Fanseite",
        "verlaesslichkeit": "mittel-hoch",
        "foto_quelle": "https://www.budterence.tk/repDonMatteo6/010.htm",
        "budterence_kartennr": "10",
        "quelle_detailtiefe": "hoch",
        "geprueft_am": "2026-08-11",
        "notizen": "NEU: Dieser Ort fehlt in der Uebersichtstabelle der Reportage und taucht erst auf der Einzelseite 010 auf. In keiner anderen Quelle genannt."
      }
    },
    {
      "type": "Feature",
      "geometry": {
        "type": "Point",
        "coordinates": [
          12.5819057,
          43.3512996
        ]
      },
      "properties": {
        "id": "G31",
        "name_de": "Via Savelli della Porta 8 - Anwaltskanzlei Lanciano",
        "name_it": "Studio legale dell'Avvocato Lanciano",
        "typ": "Gebaeude",
        "ort": "Gubbio",
        "provinz": "PG",
        "adresse": "Via Savelli della Porta 8, 06024 Gubbio PG",
        "geo_genauigkeit": "ungefaehr (Strassenmitte, nicht Hausnummer)",
        "geo_quelle": "Q22",
        "google_place_id": "",
        "beschreibung_ort": "Beginn der Via Savelli della Porta, wenige Meter unterhalb der Einmuendung der Via Oderigi Lucarelli. Erreichbar von der Via Baldassini oder ueber die kurvige Via Oderigi Lucarelli hinab.",
        "rolle_in_der_serie": "Kanzlei von Avvocato Lanciano, in der der Vater des Mordopfers Giorgio zusammen mit seinem anderen Sohn praktiziert. Don Matteo kommt hier aus der Via Baldassini an.",
        "staffeln": "6",
        "folgen_beispiele": "Una dura prova per Don Matteo (St. 6)",
        "quellen": "Q06",
        "quellenkategorie": "Fanseite",
        "verlaesslichkeit": "mittel-hoch",
        "foto_quelle": "https://www.budterence.tk/repDonMatteo6/019.htm",
        "budterence_kartennr": "19",
        "quelle_detailtiefe": "hoch",
        "geprueft_am": "2026-08-11",
        "notizen": "NEU: fehlt in der Uebersichtstabelle, nur auf Einzelseite 019. Schoenes Detail fuer Besucher: Auch in Wirklichkeit haengt neben dem Portal ein Anwaltsschild. In derselben Strasse unter Nr. 79 der Palazzo Falcucci (14. Jh.), in dem der Ueberlieferung nach Dante gewohnt haben soll."
      }
    },
    {
      "type": "Feature",
      "geometry": {
        "type": "Point",
        "coordinates": [
          12.5775706,
          43.3531684
        ]
      },
      "properties": {
        "id": "G32",
        "name_de": "Via Cristini",
        "name_it": "Via Cristini",
        "typ": "Gasse",
        "ort": "Gubbio",
        "provinz": "PG",
        "adresse": "Via Cristini, 06024 Gubbio PG",
        "geo_genauigkeit": "exakt (Strassenmitte)",
        "geo_quelle": "Q22",
        "google_place_id": "ChIJWbY42ac5LBMRERr7si51YnI",
        "beschreibung_ort": "Kleine Gasse wenige Meter von der Piazza San Giovanni entfernt.",
        "rolle_in_der_serie": "Miriam bezahlt hier den Dealer, um saemtliche Drogenschulden ihres Cousins Fiorenzo zu begleichen. In der Folge trifft sie den Dealer unmittelbar nachdem sie sich auf der Piazza San Giovanni von Don Matteo und Suor Maria verabschiedet hat - der kurze Weg laesst sich also in der Realitaet eins zu eins nachlaufen.",
        "staffeln": "6",
        "folgen_beispiele": "Bravi ragazzi (St. 6)",
        "quellen": "Q06",
        "quellenkategorie": "Fanseite",
        "verlaesslichkeit": "mittel-hoch",
        "foto_quelle": "https://www.budterence.tk/repDonMatteo6/020.htm",
        "budterence_kartennr": "20",
        "quelle_detailtiefe": "hoch",
        "geprueft_am": "2026-08-11",
        "notizen": "NEU: fehlt in der Uebersichtstabelle, nur auf Einzelseite 020. Eignet sich gut als kurze Wegstrecke auf der Karte (Piazza San Giovanni -> Via Cristini)."
      }
    },
    {
      "type": "Feature",
      "geometry": {
        "type": "Point",
        "coordinates": [
          13.1490174,
          42.9412758
        ]
      },
      "properties": {
        "id": "M01",
        "name_de": "Eissporthalle Ussita",
        "name_it": "Palazzetto del Ghiaccio di Ussita",
        "typ": "Sporthalle",
        "ort": "Ussita",
        "provinz": "MC (Marche)",
        "adresse": "62039 Ussita, Provinz Macerata",
        "geo_genauigkeit": "exakt",
        "geo_quelle": "Q22",
        "google_place_id": "ChIJX8kplmlzLhMRsY8n7taL4TI",
        "beschreibung_ort": "Eissporthalle im oberen Nera-Tal (Valnerina), Provinz Macerata, rund 100 km oestlich von Gubbio - der einzige belegte Drehort ausserhalb Umbriens und Latiums.",
        "rolle_in_der_serie": "Stellt das 'palazzetto dello sport' von Gubbio dar. Buergermeisterin Laura Respighi will die Eiskunstlauf-Meisterschaften 2006 nach Gubbio holen; beim Training stuerzt die Laeuferin Chiara Sereni schwer. Das Eis war ueber die Eismaschine erwaermt und dadurch bruechig gemacht worden - Sabotage.",
        "staffeln": "4",
        "folgen_beispiele": "I volteggi del cuore (4x11, EA 25.03.2004)",
        "quellen": "Q29|Q31",
        "quellenkategorie": "offiziell (Website Hauptdarsteller) + Enzyklopaedie",
        "verlaesslichkeit": "hoch",
        "foto_quelle": "",
        "budterence_kartennr": "",
        "quelle_detailtiefe": "mittel (Drehtermin belegt, Szenenzuordnung ueber Folgeninhalt erschlossen)",
        "geprueft_am": "2026-08-12",
        "notizen": "NEU in v3 und in KEINER Location-Liste enthalten - weder bei Italy for Movies noch in der Presse. Gefunden ueber das News-Archiv von terencehill.it: 'Ab Mittwoch, 2. Juli 2003, ist die Don-Matteo-Crew in Ussita-Visso fuer die Aufnahmen im Eispalast.' Der Termin passt zur Produktion von Staffel 4 (EA Feb-Mai 2004); die Zuordnung zur Folge 4x11 ergibt sich daraus, dass dies die einzige Eislauf-Folge der Staffel ist - die Quelle nennt die Folge NICHT selbst. WARNUNG fuer Besucher: Die Halle ist laut Google-Rezensionen seit Jahren geschlossen; ein Zusammenhang mit dem Erdbeben 2016 in der Valnerina liegt nahe, ist aber nicht belegt."
      }
    },
    {
      "type": "Feature",
      "geometry": {
        "type": "Point",
        "coordinates": [
          12.4029991,
          42.0514489
        ]
      },
      "properties": {
        "id": "S01",
        "name_de": "Lux Vide - Teatri di posa, Formello",
        "name_it": "Lux Vide Film Factory, Formello",
        "typ": "Filmstudio",
        "ort": "Formello",
        "provinz": "RM",
        "adresse": "Via di Santa Cornelia 7, 00060 Formello RM",
        "geo_genauigkeit": "exakt",
        "geo_quelle": "Q22",
        "google_place_id": "ChIJv1DZj9xCLxMRbpAWgOMvw5I",
        "beschreibung_ort": "Studios der Produktionsfirma Lux Vide vor den Toren Roms.",
        "rolle_in_der_serie": "Hier entstehen praktisch alle Innenaufnahmen der gesamten Serie: Pfarrhaus, Kaserne, Wohnungen der Figuren. Ausgenommen sind einige Kirchen und wenige real zugaengliche Gebaeude (in Spoleto vor allem Sant'Eufemia).",
        "staffeln": "1-15",
        "folgen_beispiele": "",
        "quellen": "Q07|Q06|Q08|Q41",
        "quellenkategorie": "Presse + Fanseite",
        "verlaesslichkeit": "hoch",
        "foto_quelle": "",
        "budterence_kartennr": "",
        "quelle_detailtiefe": "",
        "geprueft_am": "2026-08-12",
        "notizen": "Durchgehend genutzt von Gubbio bis Spoleto. Fuer Staffel 15 belegt, dass die Studioarbeit den Aussendreharbeiten in Spoleto zeitlich vorausging."
      }
    },
    {
      "type": "Feature",
      "geometry": {
        "type": "Point",
        "coordinates": [
          12.7394553,
          42.7350347
        ]
      },
      "properties": {
        "id": "SP01",
        "name_de": "Piazza del Duomo Spoleto",
        "name_it": "Piazza del Duomo",
        "typ": "Platz",
        "ort": "Spoleto",
        "provinz": "PG",
        "adresse": "Piazza del Duomo, 06049 Spoleto PG",
        "geo_genauigkeit": "exakt",
        "geo_quelle": "Q22",
        "google_place_id": "ChIJcyqrq_X0LhMRdjrvPhT6Ejg",
        "beschreibung_ort": "Der zentrale Platz Spoletos, ueber eine grosse Freitreppe (Via dell'Arringo) zu erreichen. Um ihn herum gruppieren sich Dom, Teatro Caio Melisso, Casa Menotti und Palazzo Bufalini.",
        "rolle_in_der_serie": "Das Aequivalent zur Piazza Grande in Gubbio - der Dreh- und Angelpunkt der Serie ab Staffel 9. Hier liegen Pfarrhaus, Kaserne, Bar und Kirche buchstaeblich nebeneinander. Die Domtreppe ist Schauplatz zahlloser Begegnungen und Dialoge.",
        "staffeln": "9-15",
        "folgen_beispiele": "",
        "quellen": "Q06b|Q02|Q08|Q33",
        "quellenkategorie": "Fanseite + offiziell + Presse",
        "verlaesslichkeit": "hoch",
        "foto_quelle": "http://www.budterence.tk/RepDonMatteo9/location3.htm",
        "budterence_kartennr": "",
        "quelle_detailtiefe": "hoch",
        "geprueft_am": "2026-08-12",
        "notizen": "Kompakter als Gubbio: Fast alle Kern-Locations liegen an diesem einen Platz."
      }
    },
    {
      "type": "Feature",
      "geometry": {
        "type": "Point",
        "coordinates": [
          12.7401602,
          42.7351749
        ]
      },
      "properties": {
        "id": "SP02",
        "name_de": "Dom von Spoleto (Santa Maria Assunta)",
        "name_it": "Cattedrale di Santa Maria Assunta",
        "typ": "Kirche",
        "ort": "Spoleto",
        "provinz": "PG",
        "adresse": "Piazza del Duomo 2, 06049 Spoleto PG",
        "geo_genauigkeit": "exakt",
        "geo_quelle": "Q22",
        "google_place_id": "ChIJsfFL_fT0LhMRcXbJX5vUtB4",
        "beschreibung_ort": "Romanische Kathedrale mit Fassadenmosaik und Freskenzyklus von Filippo Lippi in der Apsis; Lippi ist im suedlichen Querhaus begraben.",
        "rolle_in_der_serie": "ACHTUNG - Handlungsort, nicht Kirche der Serie: Der Dom ist das bekannteste Bild der Spoleto-Staffeln, aber die religioesen Szenen werden NICHT hier gedreht. Genutzt werden die Fassade und vor allem die Freitreppe als Kulisse; Don Matteos Kirche ist Sant'Eufemia (SP04).",
        "staffeln": "9-15",
        "folgen_beispiele": "",
        "quellen": "Q02|Q08|Q33|Q34",
        "quellenkategorie": "offiziell + Presse",
        "verlaesslichkeit": "hoch",
        "foto_quelle": "",
        "budterence_kartennr": "",
        "quelle_detailtiefe": "hoch",
        "geprueft_am": "2026-08-12",
        "notizen": "Haeufigstes Missverstaendnis der Spoleto-Aera - fuer die Karte klar kennzeichnen."
      }
    },
    {
      "type": "Feature",
      "geometry": {
        "type": "Point",
        "coordinates": [
          12.7396135,
          42.7347244
        ]
      },
      "properties": {
        "id": "SP03",
        "name_de": "Palazzo Bufalini - Carabinieri-Kaserne",
        "name_it": "Palazzo Bufalini",
        "typ": "Palast",
        "ort": "Spoleto",
        "provinz": "PG",
        "adresse": "Palazzo Bufalini, Piazza del Duomo, 06049 Spoleto PG",
        "geo_genauigkeit": "exakt",
        "geo_quelle": "Q22",
        "google_place_id": "ChIJxwQgqfX0LhMRZq1uZQgcZfI",
        "beschreibung_ort": "Herrschaftliche Residenz des 17. Jh. direkt an der Piazza del Duomo, in Privatbesitz und nicht zu besichtigen.",
        "rolle_in_der_serie": "Kaserne von Maresciallo Cecchini - das Spoleto-Pendant zum Palazzo Pretorio. Nur Aussenaufnahmen; das Kaserneninnere entsteht wie in der Gubbio-Aera im Studio in Formello.",
        "staffeln": "9-15",
        "folgen_beispiele": "",
        "quellen": "Q06b|Q02|Q08|Q33|Q34",
        "quellenkategorie": "Fanseite + offiziell + Presse",
        "verlaesslichkeit": "hoch",
        "foto_quelle": "http://www.budterence.tk/RepDonMatteo9/location3.htm",
        "budterence_kartennr": "",
        "quelle_detailtiefe": "hoch",
        "geprueft_am": "2026-08-12",
        "notizen": "Fuer Staffel 15 ausdruecklich als Kaserne bestaetigt. Achtung: Eine Google-Rezension zu Casa Menotti behauptet, die Kaserne sei Casa Menotti - das widerspricht allen belastbaren Quellen und ist vermutlich eine Verwechslung der Nachbargebaeude."
      }
    },
    {
      "type": "Feature",
      "geometry": {
        "type": "Point",
        "coordinates": [
          12.7384903,
          42.7348279
        ]
      },
      "properties": {
        "id": "SP04",
        "name_de": "Basilica di Sant'Eufemia - Kirche von Don Matteo",
        "name_it": "Basilica di Sant'Eufemia",
        "typ": "Kirche",
        "ort": "Spoleto",
        "provinz": "PG",
        "adresse": "Via Aurelio Saffi 13, 06049 Spoleto PG",
        "geo_genauigkeit": "exakt",
        "geo_quelle": "Q22",
        "google_place_id": "ChIJtyeGHPX0LhMRcX37g_30q10",
        "beschreibung_ort": "Romanische Kirche des 11./12. Jh. langobardischen Ursprungs, im Hof des erzbischoeflichen Palasts verborgen. Dreischiffig mit Matroneen; der Zugang fuehrt durch das Museo Diocesano. Der Ueberlieferung nach stand hier die koenigliche und herzogliche Residenz.",
        "rolle_in_der_serie": "Don Matteos bzw. Don Massimos Pfarrkirche. Anders als in Gubbio wurden hier SOWOHL Innen- als auch Aussenaufnahmen gedreht - es gibt also keine Aufteilung auf zwei Kirchen.",
        "staffeln": "9-15",
        "folgen_beispiele": "",
        "quellen": "Q06b|Q02|Q08|Q33|Q34|Q35",
        "quellenkategorie": "Fanseite + offiziell + Presse",
        "verlaesslichkeit": "hoch",
        "foto_quelle": "http://www.budterence.tk/RepDonMatteo9/location4.htm",
        "budterence_kartennr": "",
        "quelle_detailtiefe": "hoch",
        "geprueft_am": "2026-08-12",
        "notizen": "Eintritt ca. 2 Euro ueber das Museo Diocesano. Fuer Fans die wichtigste Innenlocation der ganzen Serie, weil sie real begehbar ist."
      }
    },
    {
      "type": "Feature",
      "geometry": {
        "type": "Point",
        "coordinates": [
          12.7395205,
          42.7351192
        ]
      },
      "properties": {
        "id": "SP05",
        "name_de": "Teatro Caio Melisso - Pfarrhauseingang und Gefaengnis-Sprechzimmer",
        "name_it": "Teatro Caio Melisso",
        "typ": "Theater",
        "ort": "Spoleto",
        "provinz": "PG",
        "adresse": "Piazza del Duomo 4, 06049 Spoleto PG",
        "geo_genauigkeit": "exakt",
        "geo_quelle": "Q22",
        "google_place_id": "ChIJxwGpqvX0LhMR9yruac4E0e4",
        "beschreibung_ort": "Eines der aeltesten Rangtheater Italiens, im 17. Jh. in den unvollendeten Palazzo della Signoria eingebaut, 1880 von Giovanni Montiroli umgestaltet. Spielstaette des Festival dei Due Mondi.",
        "rolle_in_der_serie": "Doppelrolle: (1) Ein Nebeneingang des Theaters dient als Eingang zu Don Matteos Pfarrhaus. (2) Im Inneren wurde das Sprechzimmer (parlatorio) des Gefaengnisses eingerichtet.",
        "staffeln": "9-15",
        "folgen_beispiele": "",
        "quellen": "Q06b|Q02|Q08|Q35",
        "quellenkategorie": "Fanseite + offiziell + Presse",
        "verlaesslichkeit": "hoch (mit Widerspruch)",
        "foto_quelle": "http://www.budterence.tk/RepDonMatteo9/location3.htm",
        "budterence_kartennr": "",
        "quelle_detailtiefe": "hoch",
        "geprueft_am": "2026-08-12",
        "notizen": "WIDERSPRUCH 1 (Pfarrhaus): Die Fan-Reportage nennt den Nebeneingang des Caio Melisso; ein Reiseblog verortet das Pfarrhaus dagegen an einer kleinen Holztuer links der ehemaligen Kirche Santa Maria della Manna d'Oro. WIDERSPRUCH 2 (Sprechzimmer): Die Mehrzahl der Quellen inkl. Umbria Tourism nennt das Caio Melisso; eine einzelne Quelle nennt stattdessen das 'Teatrino delle Sei'. Beide Punkte vor Veroeffentlichung pruefen."
      }
    },
    {
      "type": "Feature",
      "geometry": {
        "type": "Point",
        "coordinates": [
          12.7393971,
          42.7348008
        ]
      },
      "properties": {
        "id": "SP06",
        "name_de": "Bar an der Piazza del Duomo (Erdgeschoss Casa Menotti)",
        "name_it": "Bar in Casa Menotti",
        "typ": "Bar",
        "ort": "Spoleto",
        "provinz": "PG",
        "adresse": "Via dell'Arringo 1 / Piazza del Duomo, 06049 Spoleto PG",
        "geo_genauigkeit": "exakt (Casa Menotti)",
        "geo_quelle": "Q22",
        "google_place_id": "ChIJW77PqvX0LhMRnkeL5bCpWrU",
        "beschreibung_ort": "Erdgeschoss der Casa Menotti, eines Palasts des 16. Jh. an der Piazza del Duomo. Das Haus war bis zu seinem Tod die Wohnung des Komponisten Giancarlo Menotti, Begruender des Festival dei Due Mondi; heute Museum und Dokumentationszentrum des Festivals.",
        "rolle_in_der_serie": "Das Spoleto-Pendant zum Caffe Ducale: Hier spielen Don Matteo und Maresciallo Cecchini Schach, und hier entlockt der Priester dem Maresciallo die entscheidenden Hinweise.",
        "staffeln": "9-15",
        "folgen_beispiele": "",
        "quellen": "Q06b|Q36",
        "quellenkategorie": "Fanseite + Blog",
        "verlaesslichkeit": "hoch",
        "foto_quelle": "http://www.budterence.tk/RepDonMatteo9/location3.htm",
        "budterence_kartennr": "",
        "quelle_detailtiefe": "hoch",
        "geprueft_am": "2026-08-12",
        "notizen": "Eine haeufig genannte Bar heisst 'Tric Trac' - ob das dasselbe Lokal ist oder ein zweites, geht aus den Quellen nicht eindeutig hervor. Vor Ort klaeren."
      }
    },
    {
      "type": "Feature",
      "geometry": {
        "type": "Point",
        "coordinates": [
          12.7419613,
          42.7346364
        ]
      },
      "properties": {
        "id": "SP07",
        "name_de": "Rocca Albornoziana - Gefaengnis (Aussenansicht)",
        "name_it": "Rocca Albornoziana",
        "typ": "Festung",
        "ort": "Spoleto",
        "provinz": "PG",
        "adresse": "Piazza Bernardino Campello 1, 06049 Spoleto PG",
        "geo_genauigkeit": "exakt",
        "geo_quelle": "Q22",
        "google_place_id": "ChIJy_97LvT0LhMRkhX0MDZxnBo",
        "beschreibung_ort": "Paepstliche Festung des 14. Jh. hoch ueber der Stadt, heute Museo Nazionale del Ducato di Spoleto. Rundherum fuehrt der 'Giro della Rocca' mit Blick ueber Stadt und Tal; erreichbar zu Fuss oder ueber Rolltreppen und Aufzuege.",
        "rolle_in_der_serie": "Die Casa circondariale der Serie - das Gefaengnis, das Don Matteo staendig besucht. Nur die Aussenansicht; das Sprechzimmer im Inneren ist das Teatro Caio Melisso (SP05).",
        "staffeln": "9-15",
        "folgen_beispiele": "",
        "quellen": "Q06b|Q08|Q34|Q35",
        "quellenkategorie": "Fanseite + Presse",
        "verlaesslichkeit": "hoch",
        "foto_quelle": "http://www.budterence.tk/RepDonMatteo9/location2.htm",
        "budterence_kartennr": "",
        "quelle_detailtiefe": "hoch",
        "geprueft_am": "2026-08-12",
        "notizen": "Wie in Gubbio (Voltone / Via della Zecca) montiert die Serie auch hier zwei getrennte Orte zu einem Gefaengnis zusammen."
      }
    },
    {
      "type": "Feature",
      "geometry": {
        "type": "Point",
        "coordinates": [
          12.7439086,
          42.7328883
        ]
      },
      "properties": {
        "id": "SP08",
        "name_de": "Ponte delle Torri",
        "name_it": "Ponte delle Torri",
        "typ": "Bruecke",
        "ort": "Spoleto",
        "provinz": "PG",
        "adresse": "Via Giro del Ponte, 06049 Spoleto PG",
        "geo_genauigkeit": "exakt",
        "geo_quelle": "Q22",
        "google_place_id": "ChIJRXBA-vX0LhMRS6mh2FuAZME",
        "beschreibung_ort": "Roemisch-langobardisches Aquaedukt, 230 m lang und 82 m hoch, ueber der Schlucht des Torrente Tessino. Eines der bekanntesten Bauwerke Umbriens.",
        "rolle_in_der_serie": "Die Bruecke, ueber die Don Matteo regelmaessig mit dem Fahrrad zum Gefaengnis faehrt - das Spoleto-Aequivalent zu den Fahrradgassen von Gubbio.",
        "staffeln": "9-15",
        "folgen_beispiele": "",
        "quellen": "Q06b|Q08|Q37",
        "quellenkategorie": "Fanseite + Presse",
        "verlaesslichkeit": "hoch",
        "foto_quelle": "http://www.budterence.tk/RepDonMatteo9/location1.htm",
        "budterence_kartennr": "",
        "quelle_detailtiefe": "hoch",
        "geprueft_am": "2026-08-12",
        "notizen": "WICHTIG FUER BESUCHER: Die Bruecke ist seit den Erdbeben (2016) fuer den Publikumsverkehr GESPERRT und nicht begehbar - ansehen ja, ueberqueren nein."
      }
    },
    {
      "type": "Feature",
      "geometry": {
        "type": "Point",
        "coordinates": [
          12.73721,
          42.7349656
        ]
      },
      "properties": {
        "id": "SP09",
        "name_de": "Via di Fontesecca - Haus Cecchini und Tommasi",
        "name_it": "Via di Fontesecca",
        "typ": "Strasse",
        "ort": "Spoleto",
        "provinz": "PG",
        "adresse": "Via di Fontesecca, 06049 Spoleto PG",
        "geo_genauigkeit": "exakt (Strassenmitte)",
        "geo_quelle": "Q22",
        "google_place_id": "ChIJuyE03_T0LhMRca-HZ-vq_hc",
        "beschreibung_ort": "Typische Gasse der Altstadt unweit der Piazza del Duomo, mit Handwerksladen und lokalen Restaurants.",
        "rolle_in_der_serie": "Hier steht das Haus, in dem Maresciallo Cecchini und Capitano Tommasi wohnen - in Spoleto im selben Gebaeude statt wie in Gubbio gegenueber voneinander.",
        "staffeln": "9-15",
        "folgen_beispiele": "",
        "quellen": "Q06b|Q02|Q08",
        "quellenkategorie": "Fanseite + offiziell + Presse",
        "verlaesslichkeit": "hoch",
        "foto_quelle": "http://www.budterence.tk/RepDonMatteo9/location5.htm",
        "budterence_kartennr": "",
        "quelle_detailtiefe": "hoch",
        "geprueft_am": "2026-08-12",
        "notizen": "Laut Presse heute regelrechtes Fan-Pilgerziel. Die Hausnummer nennt keine Quelle - anders als bei Via Baldassini 24/35 in Gubbio."
      }
    },
    {
      "type": "Feature",
      "geometry": {
        "type": "Point",
        "coordinates": [
          12.7360362,
          42.7345763
        ]
      },
      "properties": {
        "id": "SP10",
        "name_de": "Corso Mazzini",
        "name_it": "Corso Giuseppe Mazzini",
        "typ": "Strasse",
        "ort": "Spoleto",
        "provinz": "PG",
        "adresse": "Corso Giuseppe Mazzini, 06049 Spoleto PG",
        "geo_genauigkeit": "exakt (Strassenmitte)",
        "geo_quelle": "Q22",
        "google_place_id": "ChIJbQC0zor0LhMRqkYVVH06H6s",
        "beschreibung_ort": "Eine der Hauptachsen der Altstadt.",
        "rolle_in_der_serie": "Kulisse fuer Szenen mehrerer Folgen; die Quelle nennt keine bestimmte Episode.",
        "staffeln": "9",
        "folgen_beispiele": "",
        "quellen": "Q06b",
        "quellenkategorie": "Fanseite",
        "verlaesslichkeit": "mittel",
        "foto_quelle": "http://www.budterence.tk/RepDonMatteo9/location6.htm",
        "budterence_kartennr": "",
        "quelle_detailtiefe": "niedrig (nur pauschale Nennung)",
        "geprueft_am": "2026-08-12",
        "notizen": ""
      }
    },
    {
      "type": "Feature",
      "geometry": {
        "type": "Point",
        "coordinates": [
          12.7370646,
          42.7332826
        ]
      },
      "properties": {
        "id": "SP11",
        "name_de": "Arco di Druso e Germanico",
        "name_it": "Arco di Druso",
        "typ": "Archaeologische Staette",
        "ort": "Spoleto",
        "provinz": "PG",
        "adresse": "Via Arco di Druso 13, 06049 Spoleto PG",
        "geo_genauigkeit": "exakt",
        "geo_quelle": "Q22",
        "google_place_id": "ChIJ73Ck4cj1LhMR-yyddSjRgh0",
        "beschreibung_ort": "Roemischer Bogen, 23 n. Chr. vom Senat Spoletos zu Ehren von Drusus dem Juengeren und Germanicus errichtet; war das Monumentaltor zum Forum, dem heutigen Piazza del Mercato.",
        "rolle_in_der_serie": "Diente in einer Folge als Hintergrund. Welche, sagt die Quelle nicht.",
        "staffeln": "9",
        "folgen_beispiele": "",
        "quellen": "Q06b",
        "quellenkategorie": "Fanseite",
        "verlaesslichkeit": "mittel",
        "foto_quelle": "http://www.budterence.tk/RepDonMatteo9/location7.htm",
        "budterence_kartennr": "",
        "quelle_detailtiefe": "niedrig",
        "geprueft_am": "2026-08-12",
        "notizen": ""
      }
    },
    {
      "type": "Feature",
      "geometry": {
        "type": "Point",
        "coordinates": [
          12.7367086,
          42.7329464
        ]
      },
      "properties": {
        "id": "SP12",
        "name_de": "Palazzo Mauri / Via Brignone - Entfuehrung von Cecchinis Enkel",
        "name_it": "Palazzo Mauri",
        "typ": "Palast",
        "ort": "Spoleto",
        "provinz": "PG",
        "adresse": "Via Brignone 14, 06049 Spoleto PG",
        "geo_genauigkeit": "exakt",
        "geo_quelle": "Q22",
        "google_place_id": "ChIJ-d_xXe30LhMRKltNcHnBDjY",
        "beschreibung_ort": "Palast des 17. Jh. in der Via Brignone, heute Stadtbibliothek Giosue Carducci. Gegenueber liegt die Piazza Fontana.",
        "rolle_in_der_serie": "Schauplatz der Folge um die Entfuehrung von Maresciallo Cecchinis Enkel.",
        "staffeln": "9",
        "folgen_beispiele": "",
        "quellen": "Q06b",
        "quellenkategorie": "Fanseite",
        "verlaesslichkeit": "mittel-hoch",
        "foto_quelle": "http://www.budterence.tk/RepDonMatteo9/location8.htm",
        "budterence_kartennr": "",
        "quelle_detailtiefe": "mittel (Handlung benannt, Folgentitel fehlt)",
        "geprueft_am": "2026-08-12",
        "notizen": "Einziger Spoleto-Ort mit konkretem Handlungsbezug in der Fan-Reportage."
      }
    },
    {
      "type": "Feature",
      "geometry": {
        "type": "Point",
        "coordinates": [
          12.7391383,
          42.7353071
        ]
      },
      "properties": {
        "id": "SP13",
        "name_de": "Piazza della Signoria",
        "name_it": "Piazza della Signoria",
        "typ": "Platz",
        "ort": "Spoleto",
        "provinz": "PG",
        "adresse": "Piazza della Signoria, 06049 Spoleto PG",
        "geo_genauigkeit": "exakt",
        "geo_quelle": "Q22",
        "google_place_id": "ChIJ_Wr7_vT0LhMRUZItZnuSzHs",
        "beschreibung_ort": "Kleiner Platz wenige Meter oberhalb der Piazza del Duomo.",
        "rolle_in_der_serie": "Von Umbria Tourism ausdruecklich als Wiedererkennungsort aus Staffel 9 genannt; welche Szene, bleibt offen.",
        "staffeln": "9 ff.",
        "folgen_beispiele": "",
        "quellen": "Q02|Q38",
        "quellenkategorie": "offiziell + Blog",
        "verlaesslichkeit": "mittel-hoch",
        "foto_quelle": "",
        "budterence_kartennr": "",
        "quelle_detailtiefe": "niedrig",
        "geprueft_am": "2026-08-12",
        "notizen": ""
      }
    },
    {
      "type": "Feature",
      "geometry": {
        "type": "Point",
        "coordinates": [
          12.7365523,
          42.7389173
        ]
      },
      "properties": {
        "id": "SP14",
        "name_de": "Corso Garibaldi",
        "name_it": "Corso Giuseppe Garibaldi",
        "typ": "Strasse",
        "ort": "Spoleto",
        "provinz": "PG",
        "adresse": "Corso Giuseppe Garibaldi, 06049 Spoleto PG",
        "geo_genauigkeit": "exakt (Strassenmitte)",
        "geo_quelle": "Q22",
        "google_place_id": "ChIJxdiztIz0LhMRV4qjmShEYFA",
        "beschreibung_ort": "Strasse in der unteren Altstadt.",
        "rolle_in_der_serie": "Fahrrad- bzw. ab Staffel 14 Motorrad-Strecke und Kulisse fuer Verfolgungsszenen und Spaziergaenge.",
        "staffeln": "9-15",
        "folgen_beispiele": "",
        "quellen": "Q37|Q38|Q39",
        "quellenkategorie": "Presse + Blog",
        "verlaesslichkeit": "mittel-hoch",
        "foto_quelle": "",
        "budterence_kartennr": "",
        "quelle_detailtiefe": "niedrig",
        "geprueft_am": "2026-08-12",
        "notizen": "Fuer Staffel 15 erneut ausdruecklich genannt."
      }
    },
    {
      "type": "Feature",
      "geometry": {
        "type": "Point",
        "coordinates": [
          12.7387936,
          42.7346639
        ]
      },
      "properties": {
        "id": "SP15",
        "name_de": "Via dell'Arringo",
        "name_it": "Via dell'Arringo",
        "typ": "Treppenstrasse",
        "ort": "Spoleto",
        "provinz": "PG",
        "adresse": "Via dell'Arringo, 06049 Spoleto PG",
        "geo_genauigkeit": "exakt",
        "geo_quelle": "Q22",
        "google_place_id": "ChIJd5WJA_X0LhMRQ5ubsI1_4JY",
        "beschreibung_ort": "Die breite Treppenrampe, die von der Oberstadt zur Piazza del Duomo hinabfuehrt - das ikonische Bild der Spoleto-Staffeln.",
        "rolle_in_der_serie": "Zugang zur Piazza del Duomo, Schauplatz zahlloser Auf- und Abgaenge; fuer Staffel 15 ausdruecklich als Drehort genannt.",
        "staffeln": "9-15",
        "folgen_beispiele": "",
        "quellen": "Q38|Q39",
        "quellenkategorie": "Presse + Blog",
        "verlaesslichkeit": "mittel-hoch",
        "foto_quelle": "",
        "budterence_kartennr": "",
        "quelle_detailtiefe": "niedrig",
        "geprueft_am": "2026-08-12",
        "notizen": ""
      }
    },
    {
      "type": "Feature",
      "geometry": {
        "type": "Point",
        "coordinates": [
          12.7394185,
          42.7340931
        ]
      },
      "properties": {
        "id": "SP16",
        "name_de": "Piazza Campello",
        "name_it": "Piazza Bernardino Campello",
        "typ": "Platz",
        "ort": "Spoleto",
        "provinz": "PG",
        "adresse": "Piazza Bernardino Campello, 06049 Spoleto PG",
        "geo_genauigkeit": "exakt",
        "geo_quelle": "Q22",
        "google_place_id": "ChIJY6GiCvX0LhMR6RkChb3Yoxw",
        "beschreibung_ort": "Platz am Fuss der Rocca Albornoziana, mit der Fontana del Mascherone.",
        "rolle_in_der_serie": "Fuer Staffel 15 als Drehort genannt.",
        "staffeln": "15",
        "folgen_beispiele": "",
        "quellen": "Q39",
        "quellenkategorie": "Blog / Presse",
        "verlaesslichkeit": "mittel",
        "foto_quelle": "",
        "budterence_kartennr": "",
        "quelle_detailtiefe": "niedrig",
        "geprueft_am": "2026-08-12",
        "notizen": ""
      }
    },
    {
      "type": "Feature",
      "geometry": {
        "type": "Point",
        "coordinates": [
          12.7381352,
          42.7341132
        ]
      },
      "properties": {
        "id": "SP17",
        "name_de": "Vicolo della Basilica",
        "name_it": "Vicolo della Basilica",
        "typ": "Gasse",
        "ort": "Spoleto",
        "provinz": "PG",
        "adresse": "Vicolo della Basilica, 06049 Spoleto PG",
        "geo_genauigkeit": "exakt",
        "geo_quelle": "Q22",
        "google_place_id": "ChIJi3hGa_X0LhMRo2efQPIiGu0",
        "beschreibung_ort": "Schmale Gasse nahe Sant'Eufemia.",
        "rolle_in_der_serie": "Teil der Fahrrad- und Spazierwege von Don Matteo und Cecchini.",
        "staffeln": "9 ff.",
        "folgen_beispiele": "",
        "quellen": "Q38",
        "quellenkategorie": "Blog",
        "verlaesslichkeit": "niedrig-mittel",
        "foto_quelle": "",
        "budterence_kartennr": "",
        "quelle_detailtiefe": "niedrig",
        "geprueft_am": "2026-08-12",
        "notizen": "Nur von einer Quelle genannt."
      }
    },
    {
      "type": "Feature",
      "geometry": {
        "type": "Point",
        "coordinates": [
          12.7364675,
          42.7307369
        ]
      },
      "properties": {
        "id": "SP18",
        "name_de": "Via delle Mura",
        "name_it": "Via delle Mura",
        "typ": "Strasse",
        "ort": "Spoleto",
        "provinz": "PG",
        "adresse": "Via delle Mura, 06049 Spoleto PG",
        "geo_genauigkeit": "exakt (Strassenmitte)",
        "geo_quelle": "Q22",
        "google_place_id": "",
        "beschreibung_ort": "Strasse entlang der Stadtmauer.",
        "rolle_in_der_serie": "Teil der Fahrrad- und Spazierwege.",
        "staffeln": "9 ff.",
        "folgen_beispiele": "",
        "quellen": "Q38",
        "quellenkategorie": "Blog",
        "verlaesslichkeit": "niedrig-mittel",
        "foto_quelle": "",
        "budterence_kartennr": "",
        "quelle_detailtiefe": "niedrig",
        "geprueft_am": "2026-08-12",
        "notizen": "Nur von einer Quelle genannt."
      }
    },
    {
      "type": "Feature",
      "geometry": {
        "type": "Point",
        "coordinates": [
          12.7372576,
          42.7366376
        ]
      },
      "properties": {
        "id": "SP19",
        "name_de": "Scuola Maestre Pie Filippini - Grundschule",
        "name_it": "Scuola delle Maestre Pie Filippini",
        "typ": "Schule",
        "ort": "Spoleto",
        "provinz": "PG",
        "adresse": "Piazza Edmondo De Amicis 1, 06049 Spoleto PG (neben dem Complesso Monumentale di San Nicolo)",
        "geo_genauigkeit": "exakt",
        "geo_quelle": "Q22",
        "google_place_id": "ChIJfWxqtfT0LhMRL9ZcOynvHnI",
        "beschreibung_ort": "Private Grund- und Vorschule neben dem Klosterkomplex San Nicolo.",
        "rolle_in_der_serie": "Stellt die Grundschule der Serie dar - relevant fuer die Handlungsstraenge um die Kinder im Pfarrhaus.",
        "staffeln": "9 ff.",
        "folgen_beispiele": "",
        "quellen": "Q38",
        "quellenkategorie": "Blog",
        "verlaesslichkeit": "niedrig-mittel",
        "foto_quelle": "",
        "budterence_kartennr": "",
        "quelle_detailtiefe": "niedrig",
        "geprueft_am": "2026-08-12",
        "notizen": "Nur von einer Quelle genannt, aber praezise verortet - gute Kandidatin fuer Gegenpruefung."
      }
    },
    {
      "type": "Feature",
      "geometry": {
        "type": "Point",
        "coordinates": [
          13.2028753,
          42.8092364
        ]
      },
      "properties": {
        "id": "SP20",
        "name_de": "Piana di Castelluccio di Norcia",
        "name_it": "Piana di Castelluccio",
        "typ": "Landschaft",
        "ort": "Norcia",
        "provinz": "PG",
        "adresse": "Piani di Castelluccio, 06046 Norcia PG",
        "geo_genauigkeit": "exakt (Hochebene)",
        "geo_quelle": "Q22",
        "google_place_id": "ChIJPTN6IHITLhMR2frIdj07OIc",
        "beschreibung_ort": "Hochebene in den Monti Sibillini, beruehmt fuer die 'Fioritura' - die Bluete der Linsenfelder im Juni und Juli.",
        "rolle_in_der_serie": "Landschaftskulisse. Erscheint ab Staffel 13 kurz im Vorspann und wurde fuer Staffel 14 als eine von zwei neuen Locations angekuendigt; laut Quelle aber auch schon frueher fuer einzelne Szenen genutzt.",
        "staffeln": "13-14 (fruehere Nutzung angedeutet)",
        "folgen_beispiele": "",
        "quellen": "Q08",
        "quellenkategorie": "Presse",
        "verlaesslichkeit": "mittel",
        "foto_quelle": "",
        "budterence_kartennr": "",
        "quelle_detailtiefe": "mittel",
        "geprueft_am": "2026-08-12",
        "notizen": "Die Ortschaft Castelluccio selbst wurde beim Erdbeben 2016 weitgehend zerstoert; die Hochebene ist zugaenglich."
      }
    },
    {
      "type": "Feature",
      "geometry": {
        "type": "Point",
        "coordinates": [
          12.3095338,
          42.195719
        ]
      },
      "properties": {
        "id": "TU01",
        "name_de": "Monterosi - Via Roma",
        "name_it": "Via Roma, Monterosi",
        "typ": "Strasse",
        "ort": "Monterosi",
        "provinz": "VT (Lazio)",
        "adresse": "Via Roma, 01030 Monterosi VT",
        "geo_genauigkeit": "exakt (Strassenmitte)",
        "geo_quelle": "Q22",
        "google_place_id": "ChIJM29ZnnxHLxMRXnz1b4AbtKc",
        "beschreibung_ort": "Hauptstrasse im Ortskern von Monterosi in der Tuscia, Provinz Viterbo.",
        "rolle_in_der_serie": "Zusammen mit der Chiesa di Santa Croce Schauplatz von drei Ermittlungsszenen um Don Massimo und sein Team.",
        "staffeln": "15",
        "folgen_beispiele": "",
        "quellen": "Q39|Q40",
        "quellenkategorie": "Presse",
        "verlaesslichkeit": "mittel-hoch",
        "foto_quelle": "",
        "budterence_kartennr": "",
        "quelle_detailtiefe": "mittel",
        "geprueft_am": "2026-08-12",
        "notizen": "NEU ab Staffel 15: erstmals seit der Gubbio-Aera wieder Dreharbeiten ausserhalb Umbriens."
      }
    },
    {
      "type": "Feature",
      "geometry": {
        "type": "Point",
        "coordinates": [
          12.3081817,
          42.1963804
        ]
      },
      "properties": {
        "id": "TU02",
        "name_de": "Monterosi - Chiesa di Santa Croce",
        "name_it": "Chiesa di Santa Croce",
        "typ": "Kirche",
        "ort": "Monterosi",
        "provinz": "VT (Lazio)",
        "adresse": "01030 Monterosi VT",
        "geo_genauigkeit": "exakt",
        "geo_quelle": "Q22",
        "google_place_id": "ChIJd_X8aQBHLxMR4d4z2a0RBuk",
        "beschreibung_ort": "Kirche im Ortskern von Monterosi.",
        "rolle_in_der_serie": "Einer von zwei Drehpunkten in Monterosi fuer die Ermittlungsszenen der 15. Staffel.",
        "staffeln": "15",
        "folgen_beispiele": "",
        "quellen": "Q39|Q40",
        "quellenkategorie": "Presse",
        "verlaesslichkeit": "mittel-hoch",
        "foto_quelle": "",
        "budterence_kartennr": "",
        "quelle_detailtiefe": "mittel",
        "geprueft_am": "2026-08-12",
        "notizen": ""
      }
    },
    {
      "type": "Feature",
      "geometry": {
        "type": "Point",
        "coordinates": [
          12.3486386,
          42.2423364
        ]
      },
      "properties": {
        "id": "TU03",
        "name_de": "Nepi - Piazza del Comune",
        "name_it": "Piazza del Comune, Nepi",
        "typ": "Platz",
        "ort": "Nepi",
        "provinz": "VT (Lazio)",
        "adresse": "Piazza del Comune, 01036 Nepi VT",
        "geo_genauigkeit": "exakt",
        "geo_quelle": "Q22",
        "google_place_id": "ChIJlwu-_NI-LxMRzbHnnhgguT8",
        "beschreibung_ort": "Hauptplatz des mittelalterlichen Nepi in der Tuscia.",
        "rolle_in_der_serie": "Teil der Rueckblenden auf Don Massimos Vergangenheit als Polizist.",
        "staffeln": "15",
        "folgen_beispiele": "",
        "quellen": "Q39|Q40",
        "quellenkategorie": "Presse",
        "verlaesslichkeit": "mittel-hoch",
        "foto_quelle": "",
        "budterence_kartennr": "",
        "quelle_detailtiefe": "mittel",
        "geprueft_am": "2026-08-12",
        "notizen": "Die Nepi-Szenen sind dramaturgisch abgesetzt: bewusst andere Atmosphaere als Spoleto, weil sie in der Vergangenheit spielen."
      }
    },
    {
      "type": "Feature",
      "geometry": {
        "type": "Point",
        "coordinates": [
          12.3472812,
          42.2421748
        ]
      },
      "properties": {
        "id": "TU04",
        "name_de": "Nepi - Via Matteotti",
        "name_it": "Via Giacomo Matteotti, Nepi",
        "typ": "Strasse",
        "ort": "Nepi",
        "provinz": "VT (Lazio)",
        "adresse": "Via Giacomo Matteotti, 01036 Nepi VT",
        "geo_genauigkeit": "exakt (Strassenmitte)",
        "geo_quelle": "Q22",
        "google_place_id": "ChIJL4Y639I-LxMRrPvx6wUV-b4",
        "beschreibung_ort": "Strasse im Ortskern von Nepi.",
        "rolle_in_der_serie": "Rueckblenden auf Don Massimos Zeit als Polizist.",
        "staffeln": "15",
        "folgen_beispiele": "",
        "quellen": "Q39|Q40",
        "quellenkategorie": "Presse",
        "verlaesslichkeit": "mittel-hoch",
        "foto_quelle": "",
        "budterence_kartennr": "",
        "quelle_detailtiefe": "mittel",
        "geprueft_am": "2026-08-12",
        "notizen": ""
      }
    },
    {
      "type": "Feature",
      "geometry": {
        "type": "Point",
        "coordinates": [
          12.3481798,
          42.2416597
        ]
      },
      "properties": {
        "id": "TU05",
        "name_de": "Nepi - Via San Pietro",
        "name_it": "Via di San Pietro, Nepi",
        "typ": "Strasse",
        "ort": "Nepi",
        "provinz": "VT (Lazio)",
        "adresse": "Via di S. Pietro, 01036 Nepi VT",
        "geo_genauigkeit": "exakt (Strassenmitte)",
        "geo_quelle": "Q22",
        "google_place_id": "ChIJBeRuGdM-LxMR95XGqX5X4tw",
        "beschreibung_ort": "Gasse im Ortskern von Nepi.",
        "rolle_in_der_serie": "Rueckblenden auf Don Massimos Zeit als Polizist.",
        "staffeln": "15",
        "folgen_beispiele": "",
        "quellen": "Q39|Q40",
        "quellenkategorie": "Presse",
        "verlaesslichkeit": "mittel-hoch",
        "foto_quelle": "",
        "budterence_kartennr": "",
        "quelle_detailtiefe": "mittel",
        "geprueft_am": "2026-08-12",
        "notizen": ""
      }
    },
    {
      "type": "Feature",
      "geometry": {
        "type": "Point",
        "coordinates": [
          12.3483369,
          42.2414294
        ]
      },
      "properties": {
        "id": "TU06",
        "name_de": "Nepi - Vicolo del Mattonato",
        "name_it": "Vicolo del Mattonato, Nepi",
        "typ": "Gasse",
        "ort": "Nepi",
        "provinz": "VT (Lazio)",
        "adresse": "Vicolo del Mattonato, 01036 Nepi VT",
        "geo_genauigkeit": "exakt",
        "geo_quelle": "Q22",
        "google_place_id": "ChIJt2iWGdM-LxMReh-QTboqtps",
        "beschreibung_ort": "Charakteristische gepflasterte Gasse in Nepi.",
        "rolle_in_der_serie": "Rueckblenden auf Don Massimos Zeit als Polizist.",
        "staffeln": "15",
        "folgen_beispiele": "",
        "quellen": "Q39|Q40",
        "quellenkategorie": "Presse",
        "verlaesslichkeit": "mittel-hoch",
        "foto_quelle": "",
        "budterence_kartennr": "",
        "quelle_detailtiefe": "mittel",
        "geprueft_am": "2026-08-12",
        "notizen": ""
      }
    },
    {
      "type": "Feature",
      "geometry": {
        "type": "Point",
        "coordinates": [
          12.5791452,
          43.3588688
        ]
      },
      "properties": {
        "id": "U02",
        "name_de": "Gola del Bottaccione",
        "name_it": "Gola del Bottaccione",
        "typ": "Landschaft",
        "ort": "Gubbio",
        "provinz": "PG",
        "adresse": "Via Guido Bonarelli, 06024 Gubbio PG",
        "geo_genauigkeit": "exakt",
        "geo_quelle": "Q22",
        "google_place_id": "ChIJ_8qI56k5LBMRDz6MRnl0j_s",
        "beschreibung_ort": "Schlucht zwischen Monte Ingino und Monte Calvo mit mittelalterlichem Aquaedukt und der weltberuehmten Kreide-Palaeogen-Grenzschicht.",
        "rolle_in_der_serie": "Reiner Handlungsort: In der Folge wird der Tatort so genannt, gedreht wurde aber in Loc. Sant'Angelo (U01).",
        "staffeln": "6",
        "folgen_beispiele": "Incontri ravvicinati (St. 6)",
        "quellen": "Q06",
        "quellenkategorie": "Fanseite",
        "verlaesslichkeit": "mittel",
        "foto_quelle": "",
        "budterence_kartennr": "",
        "quelle_detailtiefe": "",
        "geprueft_am": "2026-08-11",
        "notizen": "ACHTUNG: Handlungsort, nicht Drehort. Fuer eine Karte ggf. anders einfaerben."
      }
    },
    {
      "type": "Feature",
      "geometry": {
        "type": "Point",
        "coordinates": [
          12.7569839,
          43.2838684
        ]
      },
      "properties": {
        "id": "U03",
        "name_de": "Bahnhof Fossato di Vico-Gubbio",
        "name_it": "Stazione di Fossato di Vico-Gubbio",
        "typ": "Bahnhof",
        "ort": "Fossato di Vico",
        "provinz": "PG",
        "adresse": "Via Stazione 75, 06022 Osteria del Gatto PG",
        "geo_genauigkeit": "exakt",
        "geo_quelle": "Q22",
        "google_place_id": "ChIJry0NfwAzLBMRmwKdv_Awca0",
        "beschreibung_ort": "Bahnhof an der Strecke Rom-Ancona, ca. 20 km von Gubbio; Gubbio selbst hat keinen Bahnanschluss.",
        "rolle_in_der_serie": "Spielt in mehreren Szenen den 'Bahnhof von Gubbio' - z.B. Ankuenfte und Abschiede von Figuren.",
        "staffeln": "mehrere (nicht praezisiert)",
        "folgen_beispiele": "",
        "quellen": "Q03|Q07|Q09",
        "quellenkategorie": "offiziell + Presse",
        "verlaesslichkeit": "hoch",
        "foto_quelle": "",
        "budterence_kartennr": "",
        "quelle_detailtiefe": "",
        "geprueft_am": "2026-08-11",
        "notizen": "Beliebter Fan-Fakt, weil Gubbio in Wirklichkeit gar keinen Bahnhof hat."
      }
    },
    {
      "type": "Feature",
      "geometry": {
        "type": "Point",
        "coordinates": [
          12.3553009,
          43.2834385
        ]
      },
      "properties": {
        "id": "U04",
        "name_de": "Abtei Montecorona",
        "name_it": "Abbazia di San Salvatore di Monte Corona",
        "typ": "Kloster",
        "ort": "Umbertide",
        "provinz": "PG",
        "adresse": "Localita Badia di Monte Corona, 06019 Umbertide PG",
        "geo_genauigkeit": "exakt",
        "geo_quelle": "Q22",
        "google_place_id": "ChIJd3Nclk8XLBMRm8T0jx3KCG8",
        "beschreibung_ort": "Romanische Kamaldulenserabtei mit bemerkenswerter Krypta, nahe dem Tiber.",
        "rolle_in_der_serie": "Von Italy for Movies ausdruecklich als genutzter Drehort hervorgehoben; konkrete Szene nicht benannt.",
        "staffeln": "nicht praezisiert",
        "folgen_beispiele": "",
        "quellen": "Q03",
        "quellenkategorie": "offiziell",
        "verlaesslichkeit": "mittel-hoch",
        "foto_quelle": "",
        "budterence_kartennr": "",
        "quelle_detailtiefe": "",
        "geprueft_am": "2026-08-11",
        "notizen": ""
      }
    },
    {
      "type": "Feature",
      "geometry": {
        "type": "Point",
        "coordinates": [
          12.3888254,
          43.1121487
        ]
      },
      "properties": {
        "id": "U05",
        "name_de": "Perugia - Piazza IV Novembre / Palazzo dei Priori / Fontana Maggiore",
        "name_it": "Piazza IV Novembre, Perugia",
        "typ": "Platz",
        "ort": "Perugia",
        "provinz": "PG",
        "adresse": "Piazza IV Novembre, 06123 Perugia PG",
        "geo_genauigkeit": "exakt (Fontana Maggiore)",
        "geo_quelle": "Q22",
        "google_place_id": "ChIJ8av2LIGgLhMR4L3HM8ejoa4",
        "beschreibung_ort": "Hauptplatz Perugias mit Fontana Maggiore (1277) und Palazzo dei Priori.",
        "rolle_in_der_serie": "Kulisse in der Folge 'Una domenica tranquilla' (Erstausstrahlung 23.02.2006, Staffel 5).",
        "staffeln": "5",
        "folgen_beispiele": "Una domenica tranquilla (23.02.2006)",
        "quellen": "Q12|Q09|Q10",
        "quellenkategorie": "Presse + Reiseportal",
        "verlaesslichkeit": "mittel-hoch",
        "foto_quelle": "",
        "budterence_kartennr": "",
        "quelle_detailtiefe": "",
        "geprueft_am": "2026-08-11",
        "notizen": "Q09 bezeichnet Perugia als Location der Folge 5x10 - moeglicherweise dieselbe Folge."
      }
    },
    {
      "type": "Feature",
      "geometry": {
        "type": "Point",
        "coordinates": [
          12.355568,
          43.078783
        ]
      },
      "properties": {
        "id": "U06",
        "name_de": "Perugia - Krankenhaus Santa Maria della Misericordia",
        "name_it": "Ospedale Santa Maria della Misericordia",
        "typ": "Krankenhaus",
        "ort": "Perugia",
        "provinz": "PG",
        "adresse": "Piazzale Giorgio Menghini 1, 06129 Perugia PG",
        "geo_genauigkeit": "exakt",
        "geo_quelle": "Q22",
        "google_place_id": "ChIJn0tZ5yihLhMR_4XAsEZBCyA",
        "beschreibung_ort": "Grosses Regionalkrankenhaus im Nordwesten Perugias.",
        "rolle_in_der_serie": "Innenaufnahmen in mehreren Folgen der 7. Staffel - laut Quelle fuer Zuschauer schwer zu erkennen.",
        "staffeln": "7",
        "folgen_beispiele": "",
        "quellen": "Q12",
        "quellenkategorie": "Presse (Seite offline)",
        "verlaesslichkeit": "mittel",
        "foto_quelle": "",
        "budterence_kartennr": "",
        "quelle_detailtiefe": "",
        "geprueft_am": "2026-08-11",
        "notizen": "Nur eine einzige Quelle - vor Veroeffentlichung gegenpruefen."
      }
    },
    {
      "type": "Feature",
      "geometry": {
        "type": "Point",
        "coordinates": [
          12.5724566,
          43.3519615
        ]
      },
      "properties": {
        "id": "X01",
        "name_de": "Teatro Romano Gubbio",
        "name_it": "Teatro Romano di Gubbio",
        "typ": "Archaeologische Staette",
        "ort": "Gubbio",
        "provinz": "PG",
        "adresse": "Viale Teatro Romano, 06024 Gubbio PG",
        "geo_genauigkeit": "exakt",
        "geo_quelle": "Q22",
        "google_place_id": "ChIJccji-Ag5LBMRj4fo0cooK58",
        "beschreibung_ort": "Roemisches Theater des 1. Jh. v. Chr. mit rund 6.000 Plaetzen, ausserhalb der Stadtmauern.",
        "rolle_in_der_serie": "Von einem Blog als einer der drei wichtigsten Drehorte bezeichnet ('zahlreiche Aussenszenen') - von keiner besseren Quelle bestaetigt.",
        "staffeln": "unklar",
        "folgen_beispiele": "",
        "quellen": "Q14",
        "quellenkategorie": "Blog (schwach belegt)",
        "verlaesslichkeit": "niedrig",
        "foto_quelle": "",
        "budterence_kartennr": "",
        "quelle_detailtiefe": "",
        "geprueft_am": "2026-08-11",
        "notizen": "NICHT ohne Gegenpruefung veroeffentlichen. Taucht weder bei Q03 noch bei Q06 auf."
      }
    },
    {
      "type": "Feature",
      "geometry": {
        "type": "Point",
        "coordinates": [
          12.5798077,
          43.3538479
        ]
      },
      "properties": {
        "id": "X02",
        "name_de": "Dom von Gubbio",
        "name_it": "Cattedrale dei Santi Mariano e Giacomo",
        "typ": "Kirche",
        "ort": "Gubbio",
        "provinz": "PG",
        "adresse": "Via Sant'Ubaldo, 06024 Gubbio PG",
        "geo_genauigkeit": "exakt",
        "geo_quelle": "Q22",
        "google_place_id": "ChIJ2fTJ5r45LBMR1_yDCiAGfYA",
        "beschreibung_ort": "Gotische Kathedrale gegenueber dem Palazzo Ducale, mit grosser Fensterrose und den Evangelistensymbolen.",
        "rolle_in_der_serie": "Wird in Reisebloglisten als 'Don-Matteo-Ort' gefuehrt, ohne konkrete Szene.",
        "staffeln": "unklar",
        "folgen_beispiele": "",
        "quellen": "Q13",
        "quellenkategorie": "Blog",
        "verlaesslichkeit": "niedrig",
        "foto_quelle": "",
        "budterence_kartennr": "",
        "quelle_detailtiefe": "",
        "geprueft_am": "2026-08-11",
        "notizen": "Vermutlich nur Teil des Stadtrundgangs, kein belegter Drehort."
      }
    }
  ]
}